country,educationalLevel,region,name,hasCCAS,about,websites,websitesLabel,adoptionYear,mechanisms,listLength,participatingInstitutions,priorities,latitude,longitude,gobVerified
AFG,tertiary,South Asia,Afghanistan,1.0,"Afghanistan's coordinated system for tertiary education covers the entire country and includes public and private universities. The Kankor exam, held annually, determines admission. Applicants can choose five fields of study. Students are assigned based on their scores, with priority given to those who select the respective institution as first priority.",,,1980s,[boston],[5],[all],[academic],33.7680065,66.2385139,0
AGO,secondary,Sub-Saharan Africa,Angola,0.0,This country lacks a coordinated system.,,,,,,,,-11.8775768,17.5691241,0
ALB,tertiary,Europe & central Asia,Albania,0.0,This country lacks a coordinated system.,,,,,,,,1.2315264,-75.89204331320687,0
ARE,tertiary,Middle East & North Africa,United Arab Emirates,1.0,The National Admissions and Placement Office is responsible for processing the applications for admission from students who wish to either receive a scholarship to study abroad or attend a public institution. The applicant must sit for the Emirates standardized test and achieve the score in the specified subjects that meets the eligibility criteria in the desired institution.,[https://www.moe.gov.ae/En/EServices/ServiceCard/pages/RegistrationPublic.aspx],[moe.gov.ae/En/EServices/ServiceCard/pages/RegistrationPublic.aspx],1996.0,,[3],[public],[academic],24.0002488,53.9994829,0
ARG,primary,LAC,Argentina,1.0,"In Argentina, a coordinated system is implemented independently in each city for public primary and secondary education. The systems prioritize students based on staff children, siblings, proximity, and parental work. Assignments follow preference order, and in case of ties, a lottery determines admissions. The systems allow applicants to apply to between 2 and 5 institutions.","[https://www.buenosaires.gob.ar/educacion/estudiantes,https://cidi.cba.gov.ar/portal-publico/,inscripciones.mec.gob.ar,https://gobiernodigital.chaco.gob.ar/login,https://educacion.rionegro.gov.ar/]","[buenosaires.gob.ar/educacion/estudiantes,cidi.cba.gov.ar/portal-publico/,inscripciones.mec.gob.ar,gobiernodigital.chaco.gob.ar/login,educacion.rionegro.gov.ar/]",2013.0,[boston],"[8, 4, 3, 5, 2]","[all,public]","[family,academic,distance,sen,ses]",-34.9964963,-64.9672817,0
ARM,primary,Europe & central Asia,Armenia,0.0,This country lacks a coordinated system.,,,,,,,,4.536307,-75.6723751,0
AUS,primary,East Asia & Pacific,Australia,1.0,"The Australian online enrollment system encompasses both primary and secondary schools, functioning at the regional level across two of the seven regions. Parents can apply to up to three schools, guaranteeing placement in either a local public school or a specifically designated one within a shared zone.","[https://forms.act.gov.au/smartforms/servlet/SmartForm.html?formCode=1087,https://enrol.ntschools.net/]","[forms.act.gov.au/smartforms/servlet/SmartForm.html?formCode=1087,enrol.ntschools.net/]",2015.0,,[3],"[all,public]","[family,distance]",-24.7761086,134.755,0
AUT,secondary,Europe & central Asia,Austria,0.0,This country lacks a coordinated system.,,,,,,,,47.59397,14.12456,0
AZE,tertiary,Europe & central Asia,Azerbaijan,1.0,"Azerbaijan conducts coordinated exams to determine higher education admission. In the first stage, applicants take tests on Azerbaijani or Russian languages, a foreign language, and mathematics. Majors are grouped into five categories.",[https://dim.gov.az/],[dim.gov.az/],,,[15],[all],[academic],40.3936294,47.7872508,0
BDI,tertiary,Sub-Saharan Africa,Burundi,0.0,This country lacks a coordinated system.,,,,,,,,-3.426449,29.9324519,0
BEL,tertiary,Europe & central Asia,Belgium,0.0,This country lacks a coordinated system.,,,,,,,,50.6402809,4.6667145,0
BEN,tertiary,Sub-Saharan Africa,Benin,1.0,"Benin's coordinated system for public tertiary education operates nationwide. The ranking for the assignment process considers chosen courses of study, university allowance quotas (scholarships, aids), and fully paid titles. After scholarships, partially and fully paid titles are allocated.",,,2007.0,[da],[3],[public],[academic],9.5293472,2.2584408,0
BFA,primary,Sub-Saharan Africa,Burkina Faso,0.0,This country lacks a coordinated system.,,,,,,,,12.0753083,-1.6880314,0
BGD,primary,South Asia,Bangladesh,0.0,This country lacks a coordinated system.,,,,,,,,-0.2864982,36.0514231,0
BGR,tertiary,Europe & central Asia,Bulgaria,0.0,This country lacks a coordinated system.,,,,,,,,42.6073975,25.4856617,0
BHS,secondary,LAC,Bahamas,,,,,,,,,,24.7736546,-78.0000547,0
BIH,tertiary,Europe & central Asia,Bosnia and Herzegovina,0.0,This country lacks a coordinated system.,,,,,,,,44.3053476,17.5961467,0
BLR,primary,Europe & central Asia,Belarus,0.0,This country lacks a coordinated system.,,,,,,,,53.4250605,27.6971358,0
BLZ,primary,LAC,Belize,,,,,,,,,,17.1204943,-88.6859028,0
BOL,secondary,LAC,Bolivia,0.0,This country lacks a coordinated system.,,,,,,,,-17.0568696,-64.9912286,0
BRA,tertiary,LAC,Brazil,1.0,"Brazil implemented the Unique Selection System (SISU) in 2010 to coordinate college applications for federal public universities. Managed by the Ministry of Education, it allocates undergraduate vacancies based on national high school exam scores. Students select one program daily and cut-off scores are determined. On the fourth day, students are matched to programs based on rankings and scores.",[https://sisu.mec.gov.br/#/como-se-inscrever ],[sisu.mec.gov.br/#/como-se-inscrever ],2010.0,[da],[2],[public],"[academic,ses]",-10.3333333,-53.2,0
BRN,primary,East Asia & Pacific,Brunei,,,,,,,,,,4.4137155,114.5653908,0
BTN,primary,South Asia,Bhutan,,,,,,,,,,27.549511,90.5119273,0
BWA,primary,Sub-Saharan Africa,Botswana,0.0,This country lacks a coordinated system.,,,,,,,,-23.1681782,24.5928742,0
CAF,secondary,Sub-Saharan Africa,Central African Republic,0.0,This country lacks a coordinated system.,,,,,,,,7.0323598,19.9981227,0
CAN,tertiary,North America,Canada,0.0,This country lacks a coordinated system.,,,,,,,,61.0666922,-107.991707,0
CHE,primary,Europe & central Asia,Switzerland,0.0,This country lacks a coordinated system.,,,,,,,,46.7985624,8.2319736,0
CHL,primary,LAC,Chile,1.0,"Chile's coordinated system was gradually adopted by some regions, incorporating the entire country in 2020. The system prioritizes siblings, vulnerable students (through quotas), school staff's children and former students. It has two phases, and if students are not assigned to any preference in the second phase they are assigned to a nearby school with places. Lotteries are used to break ties.",[www.sistemadeadmisionescolar.cl ],[sistemadeadmisionescolar.cl ],2016.0,[da],[Unlimited],[other],"[family,ses]",-31.7613365,-71.3187697,0
CHN,primary,East Asia & Pacific,China,1.0,"The Chinese primary school admission system is largely decentralized into administrative regions and cities for public and private schools. The mechanism, for the most part, consists of randomly allocating vacancies. Common priority criteria include children of martyrs and children of active military personnel.","[https://jyj.anyang.gov.cn/2022/09-06/2358271.html,https://rmh.pdnews.cn/Pc/ArtInfoApi/article?id=29776185,https://www.xsc.cn/news/202208/44940.html,www.btjy.net,https://yjrx.bjedu.cn,https://ahrx.ahjygl.gov.cn/portal,http://jyj.changchun.gov.cn,https://jyj.changde.gov.cn,https://rxbm.csedu.gov.cn,http://changzhi.bendibao.com/live/202281/2723.shtm,www.czedu.gov.cn,https://mp.weixin.qq.com/s/ByzckwK33CgQalTq3_o6_A,http://ywzsrx.cdzk.org/,www.cqywjybm.com,http://www.zjzwfw.gov.cn/,http://dl.bendibao.com/live/201865/56502.shtm,https://www.sohu.com/a/475973576_99962390,http://ty.bendibao.com/edu/2021729/54163.shtm,https://zs.dg.cn,https://mbzs.edu.foshan.gov.cn/,http://fushun.bendibao.com/live/20141219/525.shtm,http://jyj.fuzhou.gov.cn/,ttp://gl.bendibao.com/edu/2022530/9548.shtm,http://yjrx.gyzkzx.cn,http://haikou.bendibao.com/edu/2021715/50703.shtm ,http://hdzs.hdjy.net.cn,https://xxbm.hzedu.gov.cn/,http://heb.bendibao.com/news/202063/54996.shtm#:~:text=公办小学报名：%206月15-23日，在“哈尔滨市义务教育招生入学服务系统”进行网上报名、信息采集%E3%80%82,6月28日-7月9日，进行报名信息核验%E3%80%82%207月20-22日%2C完成公办小学录取确认工作，并陆续发放公办小学入学告知信息%E3%80%82,http://zsks.hhyedu.com.cn/,http://hzjy.heze.gov.cn,http://hu.bendibao.com/news/2021429/44535.shtm,http://jmzsbm.jiangmen.cn/,http://rx.kllfw.com/home/home.aspx,http://jzth5.0416city.com/zx/index.html,http://kf.bendibao.com/edu/2022621/8931.shtm ,https://www.kmyzw.cn,https://rx.ksedu.cn,http://jyj.lanzhou.gov.cn ,http://lc.bendibao.com/edu/2022628/6663.shtm,http://linyi.bendibao.com/edu/2022723/13957.shtm,http://jyj.liuzhou.gov.cn/,http://ywzs.jyt.henan.gov.cn/,http://luzhou.bendibao.com/edu/202257/5280.shtm,myjkq.scrxbm.com,http://nc.bendibao.com/edu/2022517/72584.shtm,http://jytyj.nanchong.gov.cn/,http://edu.nanjing.gov.cn/,http://nn.bendibao.com/edu/2022524/61671.shtm,http://xsbm.ntjy.net/BM/DLindex,https://pds.gov.cn/,http://www.ptjy.com/,http://qhd.bendibao.com/edu/2022712/5251.shtm,https://qqhr.zwfw.hlj.gov.cn/,http://czxt.qzedu.cn/,zwdt.sh.gov.cn,https://www.henandaily.cn/content/2021/0909/320440.html,http://jyj.shenyang.gov.cn/yshj/ph/zcjd/202301/t20230110_4367034.html,http://sjzjyj.sjz.gov.cn/,http://jyj.taian.gov.cn/col/col47666/index.html,http://jiaoyuju.tangshan.gov.cn,http://yjrx.tj.edu.cn/,http://edu.qingdao.gov.cn,http://baomingtz.hongshanjy.cn/index.php?upcache=1,http://wf.bendibao.com/edu/202178/13772.shtm,http://weihai.bendibao.com/edu/2021616/3460.shtm,http://zsrx.whjy.net,http://ywjy.wxeic.cn,https://www.xaywjy.com/stu/index,http://jyj.xianyang.gov.cn,http://xt.bendibao.com/edu/2022718/6542.shtm,http://ywzs.jyt.henan.gov.cn,http://zsbm.xze.cn/,http://yt.bendibao.com/news/201982/45077.shtm,http://yichang.bendibao.com/news/2021616/11184.shtm,http://yc.bendibao.com/news/202177/41224.shtm,http://yy.bendibao.com/edu/2021726/7427.shtm,http://zjk.bendibao.com/live/2015423/279.shtm,https://gdzjedu.buyihui.com.cn/,http://www.zsedu.cn/,http://jyj.zhuzhou.gov.cn,http://zunyi.bendibao.com/live/xiaoxuebanshi/]","[jyj.anyang.gov.cn/2022/09-06/2358271.html,rmh.pdnews.cn/Pc/ArtInfoApi/article?id=29776185,xsc.cn/news/202208/44940.html,btjy.net,yjrx.bjedu.cn,ahrx.ahjygl.gov.cn/portal,jyj.changchun.gov.cn,jyj.changde.gov.cn,rxbm.csedu.gov.cn,changzhi.bendibao.com/live/202281/2723.shtm,czedu.gov.cn,mp.weixin.qq.com/s/ByzckwK33CgQalTq3_o6_A,ywzsrx.cdzk.org/,cqywjybm.com,zjzwfw.gov.cn/,dl.bendibao.com/live/201865/56502.shtm,sohu.com/a/475973576_99962390,ty.bendibao.com/edu/2021729/54163.shtm,zs.dg.cn,mbzs.edu.foshan.gov.cn/,fushun.bendibao.com/live/20141219/525.shtm,jyj.fuzhou.gov.cn/,ttp://gl.bendibao.com/edu/2022530/9548.shtm,yjrx.gyzkzx.cn,haikou.bendibao.com/edu/2021715/50703.shtm ,hdzs.hdjy.net.cn,xxbm.hzedu.gov.cn/,heb.bendibao.com/news/202063/54996.shtm#:~:text=公办小学报名：%206月15-23日，在“哈尔滨市义务教育招生入学服务系统”进行网上报名、信息采集%E3%80%82,6月28日-7月9日，进行报名信息核验%E3%80%82%207月20-22日%2C完成公办小学录取确认工作，并陆续发放公办小学入学告知信息%E3%80%82,zsks.hhyedu.com.cn/,hzjy.heze.gov.cn,hu.bendibao.com/news/2021429/44535.shtm,jmzsbm.jiangmen.cn/,rx.kllfw.com/home/home.aspx,jzth5.0416city.com/zx/index.html,kf.bendibao.com/edu/2022621/8931.shtm ,kmyzw.cn,rx.ksedu.cn,jyj.lanzhou.gov.cn ,lc.bendibao.com/edu/2022628/6663.shtm,linyi.bendibao.com/edu/2022723/13957.shtm,jyj.liuzhou.gov.cn/,ywzs.jyt.henan.gov.cn/,luzhou.bendibao.com/edu/202257/5280.shtm,myjkq.scrxbm.com,nc.bendibao.com/edu/2022517/72584.shtm,jytyj.nanchong.gov.cn/,edu.nanjing.gov.cn/,nn.bendibao.com/edu/2022524/61671.shtm,xsbm.ntjy.net/BM/DLindex,pds.gov.cn/,ptjy.com/,qhd.bendibao.com/edu/2022712/5251.shtm,qqhr.zwfw.hlj.gov.cn/,czxt.qzedu.cn/,zwdt.sh.gov.cn,henandaily.cn/content/2021/0909/320440.html,jyj.shenyang.gov.cn/yshj/ph/zcjd/202301/t20230110_4367034.html,sjzjyj.sjz.gov.cn/,jyj.taian.gov.cn/col/col47666/index.html,jiaoyuju.tangshan.gov.cn,yjrx.tj.edu.cn/,edu.qingdao.gov.cn,baomingtz.hongshanjy.cn/index.php?upcache=1,wf.bendibao.com/edu/202178/13772.shtm,weihai.bendibao.com/edu/2021616/3460.shtm,zsrx.whjy.net,ywjy.wxeic.cn,xaywjy.com/stu/index,jyj.xianyang.gov.cn,xt.bendibao.com/edu/2022718/6542.shtm,ywzs.jyt.henan.gov.cn,zsbm.xze.cn/,yt.bendibao.com/news/201982/45077.shtm,yichang.bendibao.com/news/2021616/11184.shtm,yc.bendibao.com/news/202177/41224.shtm,yy.bendibao.com/edu/2021726/7427.shtm,zjk.bendibao.com/live/2015423/279.shtm,gdzjedu.buyihui.com.cn/,zsedu.cn/,jyj.zhuzhou.gov.cn,zunyi.bendibao.com/live/xiaoxuebanshi/]",2014.0,"[boston,sd]","[3, 1, 4, 2]","[all,private]","[family,distance]",35.000074,104.999927,0
CIV,secondary,Sub-Saharan Africa,Cote d'Ivoire,1.0,"Cote d'Ivoire has a coordinated system, managed by the National Orientation Commission (CNO), for secondary education level across five regions (Abidjan, Aboisso, Korhogo, Soubré, Yamoussoukro). The assignment is based on choice order, academic performance, and proximity. Places are reserved for low-income students.",,,,,,[all],"[academic,distance,ses]",7.9897371,-5.5679458,0
CMR,primary,Sub-Saharan Africa,Cameroon,0.0,This country lacks a coordinated system.,,,,,,,,4.6125522,13.1535811,0
COD,primary,Sub-Saharan Africa,"Congo, Dem. Rep.",0.0,This country lacks a coordinated system.,,,,,,,,-4.038333,21.758664,0
COG,secondary,Sub-Saharan Africa,"Congo, Rep.",0.0,This country lacks a coordinated system.,,,,,,,,-0.228021,15.827659,0
COL,tertiary,LAC,Colombia,0.0,This country lacks a coordinated system.,,,,,,,,4.099917,-72.9088133,0
CRI,primary,LAC,Costa Rica,0.0,This country lacks a coordinated system.,,,,,,,,10.2735633,-84.0739102,0
CUB,tertiary,LAC,Cuba,1.0,"Cuba has two coordinated systems (universities and technical programs). For university programs, each student may apply to up to 10, and it is the value of the ranking (from the scale value) that is taken into account, not the order in the application. For technical programs, only when there are more applicants than places, some indicator, requirement or instrument is applied to order applicants.",,,,[da],[10],[all],[academic],23.0131338,-80.8328748,0
CYP,tertiary,Middle East & North Africa,Cyprus,,,,,,,,,,34.9174159,32.889902651331866,0
CZE,secondary,Europe & central Asia,Czech Republic,0.0,This country lacks a coordinated system.,,,,,,,,49.7439047,15.3381061,0
DEU,tertiary,Europe & central Asia,Germany,1.0,"Germany operates two admission systems: one for medicine and related programs since 1972, and another for volunteer universities since 2012. The medical system has a two-round process, using a Boston mechanism in the first round and DA in the second. In contrast, the volunteer system comprises three rounds: decoordinated, DA-based, and a final round with a serial dictatorship mechanism.",[https://www.hochschulstart.de/startseite ],[hochschulstart.de/startseite ],1972.0,[da],"[6, 12]","[public,other]",[academic],51.1638175,10.4478313,0
DJI,tertiary,Sub-Saharan Africa,Djibouti,,,,,,,,,,11.8145966,42.8453061,0
DNK,secondary,Europe & central Asia,Denmark,0.0,This country lacks a coordinated system.,,,,,,,,55.670249,10.3333283,0
DOM,primary,LAC,Dominican Republic,0.0,This country lacks a coordinated system.,,,,,,,,19.0974031,-70.3028026,0
DZA,secondary,Middle East & North Africa,Algeria,0.0,This country lacks a coordinated system.,,,,,,,,28.0000272,2.9999825,0
ECU,secondary,LAC,Ecuador,1.0,"Ecuador has a coordinated system for primary and secondary education. Flag bearers and applicants with special abilities will be guaranteed a place in the educational institution of their choice. For the remaining vacancies, priority will be given to students living in school area. However, if the demand exceeds the capacity, only those students with the best grades will be selected.",[https://juntos.educacion.gob.ec],[juntos.educacion.gob.ec],2021.0,,,[public],[distance],-1.3397668,-79.3666965,0
EGY,secondary,Middle East & North Africa,Egypt,0.0,This country lacks a coordinated system.,,,,,,,,26.2540493,29.2675469,0
ERI,primary,Sub-Saharan Africa,Eritrea,0.0,This country lacks a coordinated system.,,,,,,,,15.9500319,37.9999668,0
ESP,primary,Europe & central Asia,Spain,1.0,"In Spain, the assignment of students to public and private subsidized schools is governed by the Immediate Acceptance mechanism. Features common to all regions include the possibility for students to choose several schools and the priority given to factors such as siblings, proximity and family situation. Tie-breaking criteria such as lotteries are often employed.","[https://educacio.gencat.cat/ca/inici/index.html,https://sede.educacion.gob.es/sede/login/inicio.jjsp?idConvocatoria=1680,https://raices.madrid.org/secretariavirtual/,https://sede.xunta.gal/detalle-procedemento?codtram=ED550A&ano=2022&numpub=1&lang=es,https://www.juntadeandalucia.es/educacion/secretariavirtual/,https://itaca3.edu.gva.es/jwt/#/home,https://educa.aragon.es/admision ]","[educacio.gencat.cat/ca/inici/index.html,sede.educacion.gob.es/sede/login/inicio.jjsp?idConvocatoria=1680,raices.madrid.org/secretariavirtual/,sede.xunta.gal/detalle-procedemento?codtram=ED550A&ano=2022&numpub=1&lang=es,juntadeandalucia.es/educacion/secretariavirtual/,itaca3.edu.gva.es/jwt/#/home,educa.aragon.es/admision ]",1980s,[boston],"[6, 10, 5]","[all,other]","[family,distance,sen,ses]",39.3260685,-4.8379791,0
EST,tertiary,Europe & central Asia,Estonia,,,,,,,,,,58.7523778,25.3319078,0
ETH,tertiary,Sub-Saharan Africa,Ethiopia,1.0,"Ethiopia has a coordinated system for tertiary education and it includes all institutions. Students must pass the secondary school leaving exam with a score above 50%, meet annual cut-off points set by the Ministry of Education, and take aptitude tests for successful placements.",,,2003.0,,,[all],"[academic,sen,gender]",10.2116702,38.6521203,0
FIN,secondary,Europe & central Asia,Finland,1.0,Finland has a coordinated system for secondary education. The system covers the entire country and includes both public and some private schools. The applicant is selected to the program that is ranked highest and the application points are sufficient for. The algorithm used is a variant of the school-proposing DA algorithm. The tie-breaker rules use student preferences first and then GPA.,[https://opintopolku.fi/konfo/en/],[opintopolku.fi/konfo/en/],2008.0,[da],[7],[other],[academic],63.2467777,25.9209164,0
FJI,tertiary,East Asia & Pacific,Fiji,,,,,,,,,,-18.1239696,179.0122737,0
FRA,secondary,Europe & central Asia,France,1.0,"France employs a coordinated system, overseen by academies (districts). A coordinated system was first implemented in 2007, but was first implemented online in 2013. Each academy defines how many preferences an applicant can make. Priority criteria are set at national and academic level. At the national level, the main criterion that delivers allocation priority is geographic sectors.",,,2007.0,[da],[8],[public],"[family,academic,distance,sen,ses]",46.603354,1.8883335,0
GAB,primary,Sub-Saharan Africa,Gabon,0.0,This country lacks a coordinated system.,,,,,,,,-0.8999695,11.6899699,0
GBR,secondary,Europe & central Asia,United Kingdom,1.0,"In the UK, different regions have different coordinated admissions systems. School admissions in all UK regions prioritize factors such as proximity, siblings and special needs.","[https://www.eani.org.uk/parents/admissions/admissions-videos-and-guidance ,https://eadmissions.birmingham.gov.uk/prefs.php ,https://parent.bristol.gov.uk/web/portal/pages/parents/admissions ,https://parentportal.leeds.gov.uk/Synergy/Enquiries/Citizen/citizen.aspx/admissions-signin ,https://www.eadmissions.org.uk/ ,https://www.manchester.gov.uk/info/500322/secondary_school_admissions ,www. sheffield.gov.uk/home/schoolschildcare/apply-school-place]","[eani.org.uk/parents/admissions/admissions-videos-and-guidance ,eadmissions.birmingham.gov.uk/prefs.php ,parent.bristol.gov.uk/web/portal/pages/parents/admissions ,parentportal.leeds.gov.uk/Synergy/Enquiries/Citizen/citizen.aspx/admissions-signin ,eadmissions.org.uk/ ,manchester.gov.uk/info/500322/secondary_school_admissions , sheffield.gov.uk/home/schoolschildcare/apply-school-place]",2005.0,"[da,boston]","[3, 6, 5, Unlimited]","[all,public,other]","[family,distance,sen]",54.7023545,-3.2765753,0
GEO,secondary,Europe & central Asia,Georgia,0.0,This country lacks a coordinated system.,,,,,,,,32.3293809,-83.1137366,0
GHA,primary,Sub-Saharan Africa,Ghana,0.0,This country lacks a coordinated system.,,,,,,,,8.0300284,-1.0800271,0
GIN,primary,Sub-Saharan Africa,Guinea,0.0,This country lacks a coordinated system.,,,,,,,,10.7226226,-10.7083587,0
GMB,secondary,Sub-Saharan Africa,Gambia,0.0,This country lacks a coordinated system.,,,,,,,,13.470062,-15.4900464,0
GNB,secondary,Sub-Saharan Africa,Guinea-Bissau,0.0,This country lacks a coordinated system.,,,,,,,,11.815215,-15.2351044,0
GNQ,tertiary,Sub-Saharan Africa,Eq. Guinea,,,,,,,,,,1.6508001,10.267895,0
GRC,secondary,Europe & central Asia,Greece,0.0,This country lacks a coordinated system.,,,,,,,,43.2097838,-77.6930602,0
GRL,secondary,North America,Greenland,,,,,,,,,,35.9948477,-94.1796014,0
GTM,primary,LAC,Guatemala,0.0,This country lacks a coordinated system.,,,,,,,,15.5855545,-90.345759,0
GUY,secondary,LAC,Guyana,,,,,,,,,,4.8417097,-58.6416891,0
GZA,tertiary,Middle East & North Africa,West Bank and Gaza,0.0,This country lacks a coordinated system.,,,,,,,,31.9049661,35.2023413,0
HKG,secondary,East Asia & Pacific,Hong Kong,1.0,"Hong Kong's secondary admission system involves two stages. The first stage is uncoordinated (30% of vacancies) and admission criteria are set by schools. The second stage is coordinated, where 10% of vacancies allow unrestricted school choices (up to 3 schools in or outside the school net), and the remaining 90% involve restricted school choices (up to 30 schools within the school net).",[https://esspa.edb.gov.hk/login?lang=en],[esspa.edb.gov.hk/login?lang=en],1978.0,[boston],[30],[other],"[academic,distance]",22.2793278,114.1628131,0
HND,secondary,LAC,Honduras,0.0,This country lacks a coordinated system.,,,,,,,,15.2572432,-86.0755145,0
HRV,secondary,Europe & central Asia,Croatia,1.0,"Croatia has a coordinated system for all type of secondary schools. The application process occurs in multiple periods. The common element of evaluation include grades in Croatian language, mathematics and the first foreign language. Additional evaluation elements, such as special skills, are taken into account. For programs lasting at least four years, schools may set a point threshold.",[https://srednje.e-upisi.hr],[srednje.e-upisi.hr],,[da],[6],[all],[academic],45.3658443,15.6575209,0
HTI,primary,LAC,Haiti,0.0,This country lacks a coordinated system.,,,,,,,,19.1399952,-72.3570972,0
HUN,tertiary,Europe & central Asia,Hungary,1.0,"Hungary has a coordinated system at the national level. The mechanism uses a scoring system based on secondary school grades, exams, and additional factors. Each student is admitted to the first program on her list where she achieves the score-limit, resembling Gale Shapley's algorithm. When there is a tie between applicants, they are either all accepted or all rejected.",[ https://www.felvi.hu/],[ felvi.hu/],1985.0,[da],[6],[all],"[academic,sen]",47.1817585,19.5060937,0
IDN,tertiary,East Asia & Pacific,Indonesia,1.0,"Indonesia's state-owned universities admit students via the platform Seleksi Nasional Masuk Perguruan Tinggi Negeri (SNMPTN) based on high school records or the computer-based exam. SNMPTN allows two study program choices regionally, and admissions prioritize academic excellence, economic need, and regional balance.",[https://portal.ltmpt.ac.id page],[portal.ltmpt.ac.id page],,,[2],[public],[academic],-2.4833826,117.8902853,0
IND,tertiary,South Asia,India,1.0,"In India, several entrance examinations determine admission to higher education institutions. JEE for engineering courses, NEET for medical programs, CAT for business schools, CLAT for law schools, NATA for architecture courses and AIEEA for agriculture programs. Allocation is usually given on the basis of academic merit and examinations.","[https://neet.nta.nic.in/about-department/introduction/,https://iimcat.ac.in/per/g01/pub/756/ASM/WebPortal/1/index.html?756@@1@@1,http://www.nata.in/,http://icar.nta.ac.in/,https://consortiumofnlus.ac.in/,https://jeemain.nta.nic.in/about-jeemain-2023/]","[neet.nta.nic.in/about-department/introduction/,iimcat.ac.in/per/g01/pub/756/ASM/WebPortal/1/index.html?756@@1@@1,nata.in/,icar.nta.ac.in/,consortiumofnlus.ac.in/,jeemain.nta.nic.in/about-jeemain-2023/]",1984.0,[sd],,"[all,public,other]",[academic],22.3511148,78.6677428,0
IRL,primary,Europe & central Asia,Ireland,0.0,This country lacks a coordinated system.,,,,,,,,52.865196,-7.9794599,0
IRN,primary,Middle East & North Africa,Iran,0.0,This country lacks a coordinated system.,,,,,,,,32.6475314,54.5643516,0
IRQ,secondary,Middle East & North Africa,Iraq,0.0,This country lacks a coordinated system.,,,,,,,,33.0955793,44.1749775,0
ISL,secondary,Europe & central Asia,Iceland,,,,,,,,,,64.9841821,-18.1059013,0
ISR,tertiary,Middle East & North Africa,Israel,0.0,This country lacks a coordinated system.,,,,,,,,30.8124247,34.8594762,0
ITA,primary,Europe & central Asia,Italy,1.0,Italy has a coordinated system at the national level for primary and secondary public schools. Admission criteria are determined by each school; there are no national-level guidelines for admission criteria.,[https://www.istruzione.it/iscrizionionline/index.html],[istruzione.it/iscrizionionline/index.html],2012.0,[boston],[3],[public],,42.6384261,12.674297,0
JAM,tertiary,LAC,Jamaica,0.0,This country lacks a coordinated system.,,,,,,,,18.1850507,-77.3947693,0
JOR,tertiary,Middle East & North Africa,Jordan,1.0,Jordan has a coordinated system for public universities. Programs receive applications through the coordinated system or through a direct application to the university (known as parallel admission). Each applicant choose at least five options and a maximum of thirty. Admission is based on a score derived from a secondary education certificate and an entrance exam.,[http://admhec.gov.jo/],[admhec.gov.jo/],1989.0,[da],[30],[public],[academic],44.6663146,-93.6261918,0
JPN,secondary,East Asia & Pacific,Japan,1.0,"In Japan, municipalities have different admission systems, including: free choice: students can attend any school of their choice within their municipality. Block: Municipalities are divided into blocks, and students can attend any school within the block. Adjacent zone: pupils can attend the school of their choice in the adjacent zone while leaving the conventional school attendance zone.",,,2014.0,,,[public],,36.5748441,139.2394179,0
KAZ,tertiary,Europe & central Asia,Kazakhstan,0.0,This country lacks a coordinated system.,,,,,,,,48.1012954,66.7780818,0
KEN,secondary,Sub-Saharan Africa,Kenya,1.0,"Kenya has a coordinated system for public schools. Candidates are required to choose and rank their preferred schools prior to sitting for the general entrance examination. The selection process is done at four levels: national, extra-county, county or special schools and district. The selection is based on merit, equity and choice of schools made by the applicant.",[https://cba.knec.ac.ke/Account/LogOn?redirect=%2f],[cba.knec.ac.ke/Account/LogOn?redirect=%2f],,[sd],[11],[public],"[academic,distance,ses,gender]",1.4419683,38.4313975,0
KGZ,secondary,Europe & central Asia,Kyrgyzstan,0.0,This country lacks a coordinated system.,,,,,,,,42.4858224,74.714583,0
KHM,tertiary,East Asia & Pacific,Cambodia,0.0,This country lacks a coordinated system.,,,,,,,,12.5433216,104.8144914,0
KOR,tertiary,East Asia & Pacific,South Korea,0.0,This country lacks a coordinated system.,,,,,,,,36.638392,127.6961188,0
KWT,secondary,Middle East & North Africa,Kuwait,0.0,This country lacks a coordinated system.,,,,,,,,29.3796532,47.9734174,0
LAO,primary,East Asia & Pacific,Laos,0.0,This country lacks a coordinated system.,,,,,,,,20.0171109,103.378253,0
LBN,secondary,Middle East & North Africa,Lebanon,0.0,This country lacks a coordinated system.,,,,,,,,40.375713,-76.4626118,0
LBR,primary,Sub-Saharan Africa,Liberia,0.0,This country lacks a coordinated system.,,,,,,,,5.7499721,-9.3658524,0
LBY,secondary,Middle East & North Africa,Libya,0.0,This country lacks a coordinated system.,,,,,,,,26.8234472,18.1236723,0
LKA,tertiary,South Asia,Sri Lanka,1.0,"Admission to public universities is made through a coordinated system managed by the University Grants Commission. The admission is coordinated since 1960s. Sri Lanka has a coordinated system for public universities. The system has three types of quotas: merit (40%), district (55%) and disadvantaged district (5%). Z-scores (normalized scores) rank applicants and are calculated for each quota.",[www.ugc.ac.lk],[ugc.ac.lk],1960s,[da],[Unlimited],[public],"[academic,distance,ses]",7.5554942,80.7137847,0
LSO,tertiary,Sub-Saharan Africa,Lesotho,0.0,This country lacks a coordinated system.,,,,,,,,-29.6039267,28.3350193,0
LTU,tertiary,Europe & central Asia,Lithuania,1.0,"Lithuania has a coordinated admission system for public institutions. Applicants can register for up to 9 study programs. A competition score ranks applicants based on grades, test scores, and extracurriculars. Applicants are allocated to study programs based on their competition score and the available spots in each program.",[https://bp.lamabpo.lt/bp2022/lama_is.main?p_lang=LTU ],[bp.lamabpo.lt/bp2022/lama_is.main?p_lang=LTU ],1999.0,[da],[9],[public],[academic],55.3500003,23.7499997,0
LUX,secondary,Europe & central Asia,Luxembourg,,,,,,,,,,49.6112768,6.129799,0
LVA,secondary,Europe & central Asia,Latvia,0.0,This country lacks a coordinated system.,,,,,,,,56.8406494,24.7537645,0
MAR,secondary,Middle East & North Africa,Morocco,0.0,This country lacks a coordinated system.,,,,,,,,28.3347722,-10.371337908392649,0
MDA,secondary,Europe & central Asia,Moldova,0.0,This country lacks a coordinated system.,,,,,,,,47.2879608,28.5670941,0
MDG,tertiary,Sub-Saharan Africa,Madagascar,0.0,This country lacks a coordinated system.,,,,,,,,-18.9249604,46.4416422,0
MEX,tertiary,LAC,Mexico,0.0,This country lacks a coordinated system.,,,,,,,,19.4326296,-99.1331785,0
MKD,primary,Europe & central Asia,Macedonia,0.0,This country lacks a coordinated system.,,,,,,,,41.1927739,-95.4256198,0
MLI,secondary,Sub-Saharan Africa,Mali,1.0,"Mali has a coordinated system for certain public and private schools. Admissions to secondary schools are based on students' grades, their preferences, and school capacity.",,,,,,[other],[academic],16.3700359,-2.2900239,0
MMR,tertiary,East Asia & Pacific,Myanmar,1.0,Myanmar has a coordinated system for university admissions. Students graduating from high schools must collect a university admission form. This form requires students to list up to 20 university courses in descending order based on preference. They must return the completed forms at a designated university in their nearest town. Admission is determined by 10th grade exams.,,,,,[20],[other],[academic],17.1750495,95.9999652,0
MNE,primary,Europe & central Asia,Montenegro,,,,,,,,,,-29.6826112,-51.4687455,0
MNG,secondary,East Asia & Pacific,Mongolia,0.0,This country lacks a coordinated system.,,,,,,,,43.9382593,-79.2235563,0
MOZ,secondary,Sub-Saharan Africa,Mozambique,0.0,This country lacks a coordinated system.,,,,,,,,-19.302233,34.9144977,0
MRT,secondary,Sub-Saharan Africa,Mauritania,0.0,This country lacks a coordinated system.,,,,,,,,20.2540382,-9.2399263,0
MWI,secondary,Sub-Saharan Africa,Malawi,0.0,This country lacks a coordinated system.,,,,,,,,-13.2687204,33.9301963,0
MYS,secondary,East Asia & Pacific,Malaysia,1.0,"Malaysia has a coordinated system for vocational, technical, boarding, and religious secondary schools. Students can apply via form One or Form Four. Applications for boarding and religious schools are accepted for both Form One and Four, while Form Four students can apply to secondary technical schools, army college, and vocational colleges.",,,2021.0,,,[other],[academic],4.5693754,102.2656823,0
NAM,primary,Sub-Saharan Africa,Namibia,0.0,This country lacks a coordinated system.,,,,,,,,-23.2335499,17.3231107,0
NCL,tertiary,East Asia & Pacific,New Caledonia,,,,,,,,,,-20.63784275,161.2117626122578,0
NER,secondary,Sub-Saharan Africa,Niger,0.0,This country lacks a coordinated system.,,,,,,,,17.7356214,9.3238432,0
NGA,primary,Sub-Saharan Africa,Nigeria,0.0,This country lacks a coordinated system.,,,,,,,,9.6000359,7.9999721,0
NIC,primary,LAC,Nicaragua,0.0,This country lacks a coordinated system.,,,,,,,,12.6090157,-85.2936911,0
NLD,primary,Europe & central Asia,Netherlands,1.0,"In the Netherlands, some cities manage admissions through a coordinated process. The length of the application list varies according to the city. In general, priority is given to siblings of enrolled students and depending on the distance to the school.",,,2013.0,[other],"[10, 5]","[all,other]","[family,distance]",52.2434979,5.6343227,0
NOR,tertiary,Europe & central Asia,Norway,1.0,"Norway has a coordinated system for all public and some private institutions. Admission to studies takes place on the basis of ranking within quotas. Quota is a specific proportion of the seats that are distributed among applicants who meet specific requirements. Within a quota, applicants are ranked according to their GPA. Applicants with equal GPA are then ranked by age.",[https://sok.samordnaopptak.no/#/ ],[sok.samordnaopptak.no/#/ ],2017.0,[sd],[10],[other],[academic],64.5731537,11.52803643954819,0
NPL,secondary,South Asia,Nepal,0.0,This country lacks a coordinated system.,,,,,,,,28.3780464,83.9999901,0
NZL,primary,East Asia & Pacific,New Zealand,0.0,This country lacks a coordinated system.,,,,,,,,-41.5000831,172.8344077,0
OMN,tertiary,Middle East & North Africa,Oman,1.0,"Oman has a coordinated system for tertiary education institutions. Applicants can list an unlimited number of preferences, with a minimum of 12 programs. Assignments are obtained from students' final exam grades and subject requirements, using the deferred acceptance mechanism. Tiebreaker rules vary by program.",[https://www.heac.gov.om/index.php/en/],[heac.gov.om/index.php/en/],2006.0,[da],[Unlimited],[all],[academic],21.0000287,57.0036901,0
PAK,tertiary,South Asia,Pakistan,0.0,This country lacks a coordinated system.,,,,,,,,30.3308401,71.247499,0
PAN,secondary,LAC,Panama,0.0,This country lacks a coordinated system.,,,,,,,,8.559559,-81.1308434,0
PER,primary,LAC,Peru,1.0,"Peru has two coordinated admission systems. The first one is for primary and secondary public schools at Lima. The second one is only for primary schools and it is implemented at Arequipa, Madre de Dios and Tacna, and plans to expand nationwide. Both systems involve two rounds processes. Lima's system allows only one preference while the other allows multiple preferences without limit.","[https://matriculadigital.pe,https://www.matricula2023.drelm.gob.pe/]","[matriculadigital.pe,matricula2023.drelm.gob.pe/]",2021.0,"[da,boston]","[1, Unlimited]",[public],"[family,sen]",-6.8699697,-75.0458515,0
PHL,secondary,East Asia & Pacific,Philippines,0.0,This country lacks a coordinated system.,,,,,,,,12.7503486,122.7312101,0
PNG,primary,East Asia & Pacific,Papua New Guinea,0.0,This country lacks a coordinated system.,,,,,,,,-5.6816069,144.2489081,0
POL,tertiary,Europe & central Asia,Poland,0.0,This country lacks a coordinated system.,,,,,,,,52.215933,19.134422,0
PRI,secondary,LAC,Puerto Rico,1.0,"Puerto Rico has a coordinated system for primary and secondary schools. Priority is given to students remaining in their current school, then to those seeking transfers based on their preferences. Families can list up to three schools per child.",[https://prdesieprod.opc.oracleoutsourcing.com/registro/ ],[prdesieprod.opc.oracleoutsourcing.com/registro/ ],2017.0,[boston],[3],[other],,18.2247706,-66.4858295,0
PRK,secondary,East Asia & Pacific,North Korea,,,,,,,,,,40.3736611,127.0870417,0
PRT,tertiary,Europe & central Asia,Portugal,1.0,"Admission to public education in Portugal operates through a coordinated system. Applicants compete by institution/course pairs. Applicants are ranked according to high school grades, test scores and prerequisites. The process has different phases, in each of which priority groups have their places reserved. Some programs require certain entrance exams.",[https://www.dges.gov.pt/pt],[dges.gov.pt/pt],2003.0,[da],[6],[public],"[academic,sen]",39.6621648,-8.1353519,0
PRY,secondary,LAC,Paraguay,0.0,This country lacks a coordinated system.,,,,,,,,-23.3165935,-58.1693445,0
QAT,tertiary,Middle East & North Africa,Qatar,0.0,This country lacks a coordinated system.,,,,,,,,25.3336984,51.2295295,0
ROU,secondary,Europe & central Asia,Romania,1.0,"Romania has a coordinated system for secondary schools. Candidates can participate in the online system in a single county. Allocation is based on the high school admission average: calculated as a weighted average between the overall average at the national assessment exam and the GPA. After the initial assignment, adjustments may occur for twin or triplet candidates.",[http://admitere.edu.ro/2022/],[admitere.edu.ro/2022/],1999.0,[sd],[Unlimited],[other],[academic],45.9852129,24.6859225,0
RUS,primary,Europe & central Asia,Russia,0.0,This country lacks a coordinated system.,,,,,,,,64.6863136,97.7453061,0
RWA,tertiary,Sub-Saharan Africa,Rwanda,0.0,This country lacks a coordinated system.,,,,,,,,-1.9646631,30.0644358,0
SAU,primary,Middle East & North Africa,Saudi Arabia,0.0,This country lacks a coordinated system.,,,,,,,,25.6242618,42.3528328,0
SDN,primary,Sub-Saharan Africa,Sudan,0.0,This country lacks a coordinated system.,,,,,,,,10.9,6.5,0
SEN,primary,Sub-Saharan Africa,Senegal,0.0,This country lacks a coordinated system.,,,,,,,,14.4750607,-14.4529612,0
SGP,tertiary,East Asia & Pacific,Singapore,1.0,"Singapore has a coordinated system for tertiary institutions. Applicants are assessed based on their net aggregate scores, which consider bonus points for achievements in co-curricular activities, language grades, and school affiliation. Priority is given to applicants with higher net aggregate scores, with tiebreakers based on citizenship status and gross aggregate scores.",,,1992.0,[sd],[12],[other],[academic],1.357107,103.8194992,0
SLB,secondary,East Asia & Pacific,Solomon Is.,,,,,,,,,,36.1492625,-83.1648851,0
SLE,primary,Sub-Saharan Africa,Sierra Leone,0.0,This country lacks a coordinated system.,,,,,,,,8.6400349,-11.8400269,0
SLV,secondary,LAC,El Salvador,0.0,This country lacks a coordinated system.,,,,,,,,13.8000382,-88.9140683,0
SOM,secondary,Sub-Saharan Africa,Somalia,0.0,This country lacks a coordinated system.,,,,,,,,8.3676771,49.083416,0
SRB,secondary,Europe & central Asia,Serbia,1.0,Serbia has a coordinated system at the national level. Students may list up to 20 preferences. Twins must submit identical wish lists. Students with disabilities are enrolled based on functionality levels. The software assigns students according to their top preference.,[https://mojasrednjaskola.gov.rs/Auth/Login ],[mojasrednjaskola.gov.rs/Auth/Login ],2017.0,[boston],[20],[public],"[family,academic,sen]",44.02432285,21.07657433209902,0
SSD,tertiary,Sub-Saharan Africa,South Sudan,0.0,This country lacks a coordinated system.,,,,,,,,7.8699431,29.6667897,0
SUR,secondary,LAC,Suriname,,,,,,,,,,4.1413025,-56.0771187,0
SVK,primary,Europe & central Asia,Slovak Republic,0.0,This country lacks a coordinated system.,,,,,,,,48.7411522,19.4528646,0
SVN,primary,Europe & central Asia,Slovenia,0.0,This country lacks a coordinated system.,,,,,,,,46.1199444,14.8153333,0
SWE,primary,Europe & central Asia,Sweden,1.0,"Swedish school admission systems are coordinated processes at the municipality level. Criteria such as sibling priority, relative and absolute proximity influence the allocation. Independent schools have their own application procedures. In case of high demand, a lottery may determine the allocation.","[www.goteborg.se/onskaskola,https://sjalvservice.malmo.se/oversikt/overview/1057,www.orebro.se/sokaskola,https://www.mittskolval.se/choice/kommun/0163,https://grundskola.stockholm/en/digital-services-for-compulsory-school/,https://www.uppsala.se/skolval?AcceptNecessaryCookies=,https://idp.vasteras.nexusgroup.com/wa/chooseAuthmech?authmechs=BankID%3aBankID;SITHS%3aSITHS]","[goteborg.se/onskaskola,sjalvservice.malmo.se/oversikt/overview/1057,orebro.se/sokaskola,mittskolval.se/choice/kommun/0163,grundskola.stockholm/en/digital-services-for-compulsory-school/,uppsala.se/skolval?AcceptNecessaryCookies=,idp.vasteras.nexusgroup.com/wa/chooseAuthmech?authmechs=BankID%3aBankID;SITHS%3aSITHS]",1992.0,[da],"[3, 7, Unlimited, 5]","[all,public,other]","[family,distance]",59.6749712,14.5208584,0
SWZ,tertiary,Sub-Saharan Africa,Eswatini,,,,,,,,,,-26.5624806,31.3991317,0
SYR,primary,Middle East & North Africa,Syria,0.0,This country lacks a coordinated system.,,,,,,,,34.815353599999995,38.42307447267531,0
TCD,secondary,Sub-Saharan Africa,Chad,0.0,This country lacks a coordinated system.,,,,,,,,15.6134137,19.0156172,0
TGO,primary,Sub-Saharan Africa,Togo,0.0,This country lacks a coordinated system.,,,,,,,,8.7800265,1.0199765,0
THA,tertiary,East Asia & Pacific,Thailand,1.0,"Thailand has a coordinated system for public universities. The system has four rounds: portfolio, quota, admission, and direct admission. In the admission round, which is the core of the system as it includes the general public, applicants can list up to six programs. Prior to 2019, the admission round had coordinated application but no single offer.",[https://www.mytcas.com/],[mytcas.com/],2019.0,,[6],[public],"[academic,distance]",7.4931858,124.724704,0
TJK,primary,Europe & central Asia,Tajikistan,0.0,This country lacks a coordinated system.,,,,,,,,38.6281733,70.8156541,0
TKM,tertiary,Europe & central Asia,Turkmenistan,0.0,This country lacks a coordinated system.,,,,,,,,39.3763807,59.3924609,0
TLS,secondary,East Asia & Pacific,Timor-Leste,,,,,,,,,,-8.7443169,126.063482,0
TTO,secondary,LAC,Trinidad and Tobago,,,,,,,,,,10.7466905,-61.0840075,0
TUN,primary,Middle East & North Africa,Tunisia,0.0,This country lacks a coordinated system.,,,,,,,,36.8002068,10.1857757,0
TUR,primary,Europe & central Asia,Turkey,0.0,This country lacks a coordinated system.,,,,,,,,38.9597594,34.9249653,0
TZA,secondary,Sub-Saharan Africa,Tanzania,0.0,This country lacks a coordinated system.,,,,,,,,-6.5247123,35.7878438,0
UGA,secondary,Sub-Saharan Africa,Uganda,1.0,"Uganda has a coordinated system at the national level. The Primary Leaving Examinations (PLE) is mandatory. Once the results of the PLE are published, the selection process takes place, with institutions prioritizing candidates based on preferences and performance. However, some top schools have deviated from this process, setting their own cut-off points or admitting students directly for a fee.",,,,[boston],[4],[all],[academic],1.5333554,32.2166578,0
UKR,tertiary,Europe & central Asia,Ukraine,1.0,"Ukraine has a coordinated system for all tertiary education institutions of the country. When submitting applications, students must indicate if they want to participate in a budget or non-budget tender. Applicants can submit a maximum of five preferences for budget tender. Admission is based on the national multi-subject test.",[https://vstup-edbo-gov-ua],[vstup-edbo-gov-ua],2012.0,,[5],[all],[academic],49.4871968,31.2718321,0
URY,tertiary,LAC,Uruguay,0.0,This country lacks a coordinated system.,,,,,,,,-32.8755548,-56.0201525,0
USA,tertiary,North America,United States,0.0,This country lacks a coordinated system.,,,,,,,,39.7837304,-100.445882,0
UZB,tertiary,Europe & central Asia,Uzbekistan,1.0,"Uzbekistan has a coordinated system for tertiary education. Each student can apply to only one university and for one discipline within that university. There are no second choices, requiring unsuccessful applicants to wait for the next academic year to reapply elsewhere. Successful applicants are determined by scores of an entrance exam in three subjects relevant to their chosen program.",,,1994.0,[boston],[1],,[academic],41.32373,63.9528098,0
VEN,tertiary,LAC,Venezuela,1.0,"Venezuela's tertiary education utilizes a coordinated system. The system has three phases: registration, preliminary results, and final results. Applicants may apply to 6 programs (3 mandatory choices). The ranking index of each student is calculated based on high school grades, socioeconomic factors, territorialization, and student participation.",[http://www.opsu.gob.ve/],[opsu.gob.ve/],2009.0,,[6],[other],"[academic,distance,ses]",8.0018709,-66.1109318,0
VNM,primary,East Asia & Pacific,Vietnam,0.0,This country lacks a coordinated system.,,,,,,,,15.9266657,107.9650855,0
VUT,primary,East Asia & Pacific,Vanuatu,,,,,,,,,,-16.5255069,168.1069154,0
YEM,tertiary,Middle East & North Africa,Yemen,0.0,This country lacks a coordinated system.,,,,,,,,16.3471243,47.8915271,0
ZAF,primary,Sub-Saharan Africa,South Africa,0.0,This country lacks a coordinated system.,,,,,,,,-28.8166236,24.991639,0
ZMB,tertiary,Sub-Saharan Africa,Zambia,0.0,This country lacks a coordinated system.,,,,,,,,-14.5189121,27.5589884,0
ZWE,secondary,Sub-Saharan Africa,Zimbabwe,1.0,Zimbabwe has a coordinated system for public boarding schools. Applicants can list 5 to 20 preferences.,[http://www.emap.co.zw/],[emap.co.zw/],2017.0,,[20],[public],,-18.4554963,29.7468414,0
AFG,primary,South Asia,Afghanistan,0.0,This country lacks a coordinated system.,,,,,,,,33.7680065,66.2385139,0
AFG,secondary,South Asia,Afghanistan,0.0,This country lacks a coordinated system.,,,,,,,,33.7680065,66.2385139,0
AGO,primary,Sub-Saharan Africa,Angola,0.0,This country lacks a coordinated system.,,,,,,,,-11.8775768,17.5691241,0
AGO,tertiary,Sub-Saharan Africa,Angola,0.0,This country lacks a coordinated system.,,,,,,,,-11.8775768,17.5691241,0
ALB,primary,Europe & central Asia,Albania,1.0,"Albania's coordinated system for primary education covers the entire country with online registration through e-Albania. The system allows parents to register first-grade students, selecting the school based on their address and municipality. Applications are processed by educational institutions, which notify applicants electronically of acceptance or rejection.",[www.e-albania.al],[e-albania.al],2021.0,[boston],[1],[all],,1.2315264,-75.89204331320687,0
ALB,secondary,Europe & central Asia,Albania,0.0,This country lacks a coordinated system.,,,,,,,,1.2315264,-75.89204331320687,0
ARE,secondary,Middle East & North Africa,United Arab Emirates,1.0,"In United Arab Emirates, an online application service register students into public schools, from kindergarten to twelve grade. Students must fill out the application and choose one school. Priority shall be given to students living near the applied school.",[www.ese.gov.ae],[ese.gov.ae],2016.0,[boston],[1],[public],[distance],24.0002488,53.9994829,0
ARE,primary,Middle East & North Africa,United Arab Emirates,1.0,"In United Arab Emirates, an online application service register students into public schools, from kindergarten to twelve grade. Students must fill out the application and choose one school. Priority shall be given to students living near the applied school.",[www.ese.gov.ae],[ese.gov.ae],2016.0,[boston],[1],[public],[distance],24.0002488,53.9994829,0
ARG,secondary,LAC,Argentina,1.0,"In Argentina, a coordinated system is implemented independently in each city for public primary and secondary education. The systems prioritize students based on staff children, siblings, proximity, and parental work. Assignments follow preference order, and in case of ties, a lottery determines admissions. The systems allow applicants to apply to between 2 and 5 institutions.","[ https://www.buenosaires.gob.ar/educacion/estudiantes ,https://cidi.cba.gov.ar/portal-publico/,inscripciones.mec.gob.ar,https://dti.mendoza.edu.ar/gem/pad,https://gobiernodigital.chaco.gob.ar/login,https://educacion.rionegro.gov.ar/,http://ingreso2023.jujuy.edu.ar/]","[ buenosaires.gob.ar/educacion/estudiantes ,cidi.cba.gov.ar/portal-publico/,inscripciones.mec.gob.ar,dti.mendoza.edu.ar/gem/pad,gobiernodigital.chaco.gob.ar/login,educacion.rionegro.gov.ar/,ingreso2023.jujuy.edu.ar/]",2005.0,"[da,boston]","[8, 4, 5, 2]","[all,public]","[family,academic,distance,sen]",-34.9964963,-64.9672817,0
ARG,tertiary,LAC,Argentina,0.0,This country lacks a coordinated system.,,,,,,,,-34.9964963,-64.9672817,0
ARM,tertiary,Europe & central Asia,Armenia,1.0,Armenia's coordinated system of higher education includes admission to all institutions in the country. Applicants submit admission applications online. Access requirements established by the government for each profession are followed.,[https://dimord.am/],[dimord.am/],2009.0,[boston],[1],[all],[academic],4.536307,-75.6723751,0
ARM,secondary,Europe & central Asia,Armenia,1.0,"Armenia has a coordinated system for secondary education. The registration is first open (first day) for students with parents employed at the corresponding school or having a sibling attending. Other applicants register on the second day. The online system allows editing applications, including changing the chosen school.",,,,[boston],[1],[public],[family],4.536307,-75.6723751,0
AUS,tertiary,East Asia & Pacific,Australia,1.0,"Australian tertiary admissions centers (SATAC, QTAC, UAC, VTAC, TISC) facilitate university applications. Applicants can list preferences, with selection rank (ATAR) influencing offers. ATAR is the standard measure of a student’s overall academic achievement in relation to other students. Each center manages admissions for specific regions, allowing multiple preferences.","[https://www.satac.edu.au/,https://www.qtac.edu.au/,https://www.uac.edu.au/,https://www.vtac.edu.au/,https://www.tisc.edu.au/static/home.tisc]","[satac.edu.au/,qtac.edu.au/,uac.edu.au/,vtac.edu.au/,tisc.edu.au/static/home.tisc]",1975.0,[da],"[8, 6, 5]","[all,other]",[academic],-24.7761086,134.755,0
AUS,secondary,East Asia & Pacific,Australia,1.0,"The Australian online enrollment system encompasses both primary and secondary schools, functioning at the regional level across four of the seven regions. Parents can apply to up to three schools, guaranteeing placement in either a local public school or a specifically designated one within a shared zone.","[https://www.education.sa.gov.au/parents-and-families/enrol-school-or-preschool/school-enrolment/starting-secondary-school,https://forms.act.gov.au/smartforms/servlet/SmartForm.html?formCode=1087,https://enrol.ntschools.net/]","[education.sa.gov.au/parents-and-families/enrol-school-or-preschool/school-enrolment/starting-secondary-school,forms.act.gov.au/smartforms/servlet/SmartForm.html?formCode=1087,enrol.ntschools.net/]",2009.0,,[3],"[all,public]","[family,distance]",-24.7761086,134.755,0
AUT,primary,Europe & central Asia,Austria,1.0,"Austria has a coordinated system for primary education in Graz. Parents can specify three school choices, with one required to be within a 1,500-meter radius of the residential address. Catholic private schools are also available for selection. In case of high demand, admission criteria are reviewed jointly by the Department for Education and Integration and the school management.",,,,,[3],"[all,other]",,47.59397,14.12456,0
AUT,tertiary,Europe & central Asia,Austria,0.0,This country lacks a coordinated system.,,,,,,,,47.59397,14.12456,0
AZE,primary,Europe & central Asia,Azerbaijan,0.0,This country lacks a coordinated system.,,,,,,,,40.3936294,47.7872508,0
AZE,secondary,Europe & central Asia,Azerbaijan,0.0,This country lacks a coordinated system.,,,,,,,,40.3936294,47.7872508,0
BDI,primary,Sub-Saharan Africa,Burundi,0.0,This country lacks a coordinated system.,,,,,,,,-3.426449,29.9324519,0
BDI,secondary,Sub-Saharan Africa,Burundi,1.0,"Burundi's secondary education system aims to allocate students to available seats in public and private schools. Students, after passing a required exam, are assigned to schools. The top-performing students are placed in prestigious schools, while the others are assigned by provincial commissions. Special considerations are given to the Batwa community (ethnic minority).",,,2018.0,,[3],[all],[academic],-3.426449,29.9324519,0
BEL,primary,Europe & central Asia,Belgium,1.0,"In Belgium there are three geographic-linguistic communities: Dutch, French and German. The Flanders region, which is part of the Dutch community, has a coordinated system with some rules common to all cities in the region, but other rules specific to each city. The following cities are located in the region: Ghent, Antwerp and Brussels. Brussels is part of both the Dutch and French communities.","[https://meldjeaanbubao.antwerpen.be/,inschrijveninbrussel.be,https://meldjeaanbasis.stad.gent/]","[meldjeaanbubao.antwerpen.be/,inschrijveninbrussel.be,meldjeaanbasis.stad.gent/]",2003.0,"[da,boston]",[Unlimited],"[all,other]","[family,ses]",50.6402809,4.6667145,0
BEL,secondary,Europe & central Asia,Belgium,1.0,"In Belgium there are three geographic-linguistic communities: Dutch, French and German. The Flanders region, which is part of the Dutch community, has a coordinated system with some rules common to all cities in the region, but other rules specific to each city. The following cities are located in the region: Ghent, Antwerp and Brussels. Brussels is part of both the Dutch and French communities.","[https://meldjeaansecundair.antwerpen.be/,inschrijveninbrussel.be, https://inscription.cfwb.be/,https://meldjeaansecundair.stad.gent/]","[meldjeaansecundair.antwerpen.be/,inschrijveninbrussel.be, inscription.cfwb.be/,meldjeaansecundair.stad.gent/]",2003.0,"[ttc,boston,other]","[Unlimited, 10]","[all,other]","[family,distance,sen,ses]",50.6402809,4.6667145,0
BEN,primary,Sub-Saharan Africa,Benin,0.0,This country lacks a coordinated system.,,,,,,,,9.5293472,2.2584408,0
BEN,secondary,Sub-Saharan Africa,Benin,0.0,This country lacks a coordinated system.,,,,,,,,9.5293472,2.2584408,0
BFA,secondary,Sub-Saharan Africa,Burkina Faso,0.0,This country lacks a coordinated system.,,,,,,,,12.0753083,-1.6880314,0
BFA,tertiary,Sub-Saharan Africa,Burkina Faso,1.0,"Burkina Faso has a coordinated system for tertiary education. It uses the CAMPUSFASO platform for online guidance. Students can apply to several programs, ranking up to 18 options. The assignment process considers the grades obtained in the baccalaureate exam. This system covers public and some private universities.",,,2018.0,,[18],[other],[academic],12.0753083,-1.6880314,0
BGD,tertiary,South Asia,Bangladesh,0.0,This country lacks a coordinated system.,,,,,,,,-0.2864982,36.0514231,0
BGD,secondary,South Asia,Bangladesh,1.0,"Bangladesh coordinated secondary admission system is unified for all types of institutions. A digital lottery will take place after the application process for public and private institutions, separately. Admission to Dhaka government schools is divided into three groups (science, humanities and business). After admission process, students can apply for quotas' extra seats.",[https://xiclassadmissionsbd.com/],[xiclassadmissionsbd.com/],2016.0,,[5],[all],[distance],-0.2864982,36.0514231,0
BGR,secondary,Europe & central Asia,Bulgaria,0.0,This country lacks a coordinated system.,,,,,,,,42.6073975,25.4856617,0
BGR,primary,Europe & central Asia,Bulgaria,1.0,"Primary school admissions in Burgas city follow a two-stage coordinated system for all types of schools. Applications are based on a points-based ranking system, considering time lived in the school's area, family members affiliated with the school, and preference for the requested school. After the points are calculated, students are accepted based on their scores.",[https://www.uburgas.org/],[uburgas.org/],2013.0,[other],[5],[all],"[family,distance,sen]",42.6073975,25.4856617,0
BHS,tertiary,LAC,Bahamas,,,,,,,,,,24.7736546,-78.0000547,0
BHS,primary,LAC,Bahamas,,,,,,,,,,24.7736546,-78.0000547,0
BIH,secondary,Europe & central Asia,Bosnia and Herzegovina,0.0,This country lacks a coordinated system.,,,,,,,,44.3053476,17.5961467,0
BIH,primary,Europe & central Asia,Bosnia and Herzegovina,0.0,This country lacks a coordinated system.,,,,,,,,44.3053476,17.5961467,0
BLR,tertiary,Europe & central Asia,Belarus,0.0,This country lacks a coordinated system.,,,,,,,,53.4250605,27.6971358,0
BLR,secondary,Europe & central Asia,Belarus,0.0,This country lacks a coordinated system.,,,,,,,,53.4250605,27.6971358,0
BLZ,secondary,LAC,Belize,,,,,,,,,,17.1204943,-88.6859028,0
BLZ,tertiary,LAC,Belize,,,,,,,,,,17.1204943,-88.6859028,0
BOL,tertiary,LAC,Bolivia,0.0,This country lacks a coordinated system.,,,,,,,,-17.0568696,-64.9912286,0
BOL,primary,LAC,Bolivia,0.0,This country lacks a coordinated system.,,,,,,,,-17.0568696,-64.9912286,0
BRA,primary,LAC,Brazil,1.0,"Brazil’s education system is largely decentralized into administrative regions and municipalities. The Ministry of Education defines the guiding principles and framework and coordinates national education policy for all education levels. Most cities' admission process prioritize factors such as residence proximity, siblings in the same school, and disabled students.","[https://prematricula.belem.pa.gov.br/#/,https://www.educacao.df.gov.br/, https://prematricula.sme.fortaleza.ce.gov.br/, https://ematricula-goiania.pontoid.com.br/,https://guarulhosportal.gier.com.br/index.html,http://www.matriculaonline.al.gov.br/,https://www.matriculas.am.gov.br/,https://inscricaoedinfantil2023.portoalegre.rs.gov.br/,https://minhamatricula.pe.gov.br/ ,https://www.matriculafacil.rj.gov.br/,https://www.sacdigital.ba.gov.br/usuario/novo,https://matricula.siseducsg.org.br/]","[prematricula.belem.pa.gov.br/#/,educacao.df.gov.br/, prematricula.sme.fortaleza.ce.gov.br/, ematricula-goiania.pontoid.com.br/,guarulhosportal.gier.com.br/index.html,matriculaonline.al.gov.br/,matriculas.am.gov.br/,inscricaoedinfantil2023.portoalegre.rs.gov.br/,minhamatricula.pe.gov.br/ ,matriculafacil.rj.gov.br/,sacdigital.ba.gov.br/usuario/novo,matricula.siseducsg.org.br/]",2010.0,"[da,boston]","[3, 1, Unlimited, 8]","[all,public,other]","[family,distance,sen]",-10.3333333,-53.2,0
BRA,secondary,LAC,Brazil,1.0,"Brazil’s education system is largely decentralized into administrative regions and municipalities. The Ministry of Education defines the guiding principles and framework and coordinates national education policy for all education levels. Most cities' admission process prioritize factors such as residence proximity, siblings in the same school, and disabled students.","[https://www.educacao.df.gov.br/, https://prematricula.sme.fortaleza.ce.gov.br/,http://www.matriculaonline.al.gov.br/,https://www.matriculas.am.gov.br/,https://www.matriculafacil.rj.gov.br/,https://www.sacdigital.ba.gov.br/usuario/novo]","[educacao.df.gov.br/, prematricula.sme.fortaleza.ce.gov.br/,matriculaonline.al.gov.br/,matriculas.am.gov.br/,matriculafacil.rj.gov.br/,sacdigital.ba.gov.br/usuario/novo]",2010.0,[boston],"[3, 1, 8]","[all,public]","[family,distance,sen]",-10.3333333,-53.2,0
BRN,secondary,East Asia & Pacific,Brunei,,,,,,,,,,4.4137155,114.5653908,0
BRN,tertiary,East Asia & Pacific,Brunei,,,,,,,,,,4.4137155,114.5653908,0
BTN,tertiary,South Asia,Bhutan,,,,,,,,,,27.549511,90.5119273,0
BTN,secondary,South Asia,Bhutan,,,,,,,,,,27.549511,90.5119273,0
BWA,secondary,Sub-Saharan Africa,Botswana,1.0,Botswana's secondary education system allows students to apply to junior government schools after sitting for the Junior Certificate Examination.,,,,,[3],[public],[academic],-23.1681782,24.5928742,0
BWA,tertiary,Sub-Saharan Africa,Botswana,0.0,This country lacks a coordinated system.,,,,,,,,-23.1681782,24.5928742,0
CAF,primary,Sub-Saharan Africa,Central African Republic,0.0,This country lacks a coordinated system.,,,,,,,,7.0323598,19.9981227,0
CAF,tertiary,Sub-Saharan Africa,Central African Republic,0.0,This country lacks a coordinated system.,,,,,,,,7.0323598,19.9981227,0
CAN,secondary,North America,Canada,1.0,"In Canada, Edmonton and Toronto public schools have their own coordinated system. In Toronto, students can list up to two preferences, while in Edmonton they can only apply for one school. In both cities, priority is given to resident students.",[https://schoolzone.epsb.ca/cf/index.cfm],[schoolzone.epsb.ca/cf/index.cfm],,[boston],"[2, 1]","[all,public]","[family,distance,gender]",61.0666922,-107.991707,0
CAN,primary,North America,Canada,1.0,"In Canada, Edmonton and Toronto public schools have their own coordinated system. In Toronto, students can list up to two preferences, while in Edmonton they can only apply for one school. In both cities, priority is given to resident students.","[https://schoolzone.epsb.ca/cf/index.cfm,powerschool.com%2Ffamily%2Fdirectaction&AutoLogOut=False ]","[schoolzone.epsb.ca/cf/index.cfm,powerschool.com%2Ffamily%2Fdirectaction&AutoLogOut=False ]",,[boston],"[2, 1]","[all,public]","[family,distance]",61.0666922,-107.991707,0
CHE,secondary,Europe & central Asia,Switzerland,0.0,This country lacks a coordinated system.,,,,,,,,46.7985624,8.2319736,0
CHE,tertiary,Europe & central Asia,Switzerland,0.0,This country lacks a coordinated system.,,,,,,,,46.7985624,8.2319736,0
CHL,secondary,LAC,Chile,1.0,"Chile's coordinated system was gradually adopted by some regions, incorporating the entire country in 2020. The system prioritizes siblings, vulnerable students (through quotas), school staff's children and former students. It has two phases, and if students are not assigned to any preference in the second phase they are assigned to a nearby school with places. Lotteries are used to break ties.",[www.sistemadeadmisionescolar.cl ],[sistemadeadmisionescolar.cl ],2016.0,[da],[Unlimited],[other],"[family,ses]",-31.7613365,-71.3187697,0
CHL,tertiary,LAC,Chile,1.0,"Chile has a coordinated tertiary education system adopted by most institutions. Students apply for programs, with a limit of 20 options. After a DA algorithm processes the applications, applicants are accepted into a maximum of one program and are also provided preferences for waitlisted options. In case of a tie, additional places are offered.",[https://portaldemre.demre.cl/],[portaldemre.demre.cl/],1960s,[da],[20],[other],[academic],-31.7613365,-71.3187697,0
CHN,secondary,East Asia & Pacific,China,1.0,"The Chinese secondary school admission system is highly decentralized into administrative regions and cities for public and private schools. High school admission usually involves two or more rounds of applications, with each city choosing the length of the allowed application list. Priority is usually given to candidates based on their grades and exam results.","[jyj.anshan.gov.cn,http://gzgl.jyt.henan.gov.cn,http://bdzk.ks365.org/,http://36.133.101.108:9000/,https://www.nm.zsks.cn/kszs/zzzs/,https://www.bjeea.cn,http://zhk.ahzsks.cn/bm9/,https://zkbm.cczsb.com,https://jyj.changde.gov.cn,http://jyj.changsha.gov.cn,https://zhongkao.sxkszx.cn,http://125.91.240.226/zk/zkzy/login.jsp,https://online.cdzk.org,www.cqzzxx.com,www.yw.gov.cn,https://dlzsks.edu.dl.gov.cn,http://219.235.89.47/,www.sxkszx.cn,http://www.dzzkb.cn/zkwb/,https://dgzk.dgjy.net,http://zsks.edu.foshan.gov.cn,https://fsjyj.fushun.gov.cn/ztzl/008001/moreinfo.html,http://jyj.fuzhou.gov.cn/zz/zwgk/cswz/fzygzz/,http://edu.ganzhou.gov.cn,https://zhongkao.gzzk.cn,https://www.gxeea.cn,http://www.gyzkzx.cn/,http://jyj.haikou.gov.cn/edu/kszx.action,Http://www.hdks.net,www.hzjyks.net,https://www.lzk.hl.cn/wbzx/,http://zsks.hhyedu.com.cn/,https://www.hzzzpt.com,http://www.hhkszx.cn,https://www.hzkszx.com,huedu.huzhou.gov.cn,http://jmzhjy.jiangmen.cn:81/zk/zkzy/login.jsp,https://www.jiaxing.gov.cn,http://jyzkbm.jyzsb.com/Default.aspx,http://edu.jlcity.gov.cn,http://www.jnzk.net,jyj.jinhua.gov.cn,Http://111.17.162.230:8002,http://jyj.jz.gov.cn,http://jyj.km.gov.cn/,ttp://zkbm.lzetc.cn,http://wsbm.lcedu.cn,http://jyj.linyi.gov.cn,http://gzgl.jyt.henan.gov.cn/zk/,http://lz.sczkbm.com/zkbm,http://www.mmjynet.com:9000/zk,Http://my.sczkbm.com,http://www.nceea.cn/,www.nczsks.com,http://jyj.xinxiang.gov.cn,jyj.ningbo.gov.cn,http://pt.bendibao.com/edu/2022629/4170.shtm,http://10.143.128.248:81/zk/login.jsp,http://zkzy.qhdksy.cn/mh/#/NotOpen?code=zytb,http://www.xzszb.net:8001,http://qz.bendibao.com/edu/2022310/18960.shtm,http://jyj.rizhao.gov.cn/,https://www.shmeea.edu.cn,www.jxeea.cn,http://zkgl.stedu.net/stsd,https://gzzs.sxsedu.net/,www.sysksy.cn,https://www.szzk.edu.cn/,Http://121.28.151.110:9090,http://www.taszk.com/,https://zhongkao.sxkszx.cn:8443,https://zkzs.tzedu.net.cn,http://www.xzszb.net:8001/,http://www.zhaokao.net/,http://123.235.28.4:8001/publiclogin.do,http://jyj.chifeng.gov.cn,jyj.weihai.gov.cn,https://zk.wzer.net/,https://www.163.com/dy/article/H6M6MCFN0516BIK3.html,www.xjzk.gov.cn,https://zy.xmzskszx.net/,http://edu.xa.gov.cn/,http://jyj.xiangyang.gov.cn,http://61.185.20.125:9901/Login.aspx?rdo=xs1,https://zz.xtjyks.com/zytb/login.aspx,jyj.yantai.gov.cn,http://www.ybzsb.cn/,Http://gzjd.hubzs.com.cn,www.ycrxbm.cn,http://edu.yueyang.gov.cn/index.html,http://edu.zaozhuang.gov.cn,http://www.zjkjyksy.cn,http://zk.jyj.zhanjiang.gov.cn/,http://121.10.234.31:7012/iExamWeb/,http://gzgl.jyt.henan.gov.cn ,http://zk.zsedu.cn/,http://zhjy.zhuhai.gov.cn,http://0733.gotedu.com/zkkw/login,http://zkzs.zbedu.net/,Http://www.zyszsksb.cn]","[jyj.anshan.gov.cn,gzgl.jyt.henan.gov.cn,bdzk.ks365.org/,36.133.101.108:9000/,nm.zsks.cn/kszs/zzzs/,bjeea.cn,zhk.ahzsks.cn/bm9/,zkbm.cczsb.com,jyj.changde.gov.cn,jyj.changsha.gov.cn,zhongkao.sxkszx.cn,125.91.240.226/zk/zkzy/login.jsp,online.cdzk.org,cqzzxx.com,yw.gov.cn,dlzsks.edu.dl.gov.cn,219.235.89.47/,sxkszx.cn,dzzkb.cn/zkwb/,dgzk.dgjy.net,zsks.edu.foshan.gov.cn,fsjyj.fushun.gov.cn/ztzl/008001/moreinfo.html,jyj.fuzhou.gov.cn/zz/zwgk/cswz/fzygzz/,edu.ganzhou.gov.cn,zhongkao.gzzk.cn,gxeea.cn,gyzkzx.cn/,jyj.haikou.gov.cn/edu/kszx.action,Http://hdks.net,hzjyks.net,lzk.hl.cn/wbzx/,zsks.hhyedu.com.cn/,hzzzpt.com,hhkszx.cn,hzkszx.com,huedu.huzhou.gov.cn,jmzhjy.jiangmen.cn:81/zk/zkzy/login.jsp,jiaxing.gov.cn,jyzkbm.jyzsb.com/Default.aspx,edu.jlcity.gov.cn,jnzk.net,jyj.jinhua.gov.cn,Http://111.17.162.230:8002,jyj.jz.gov.cn,jyj.km.gov.cn/,ttp://zkbm.lzetc.cn,wsbm.lcedu.cn,jyj.linyi.gov.cn,gzgl.jyt.henan.gov.cn/zk/,lz.sczkbm.com/zkbm,mmjynet.com:9000/zk,Http://my.sczkbm.com,nceea.cn/,nczsks.com,jyj.xinxiang.gov.cn,jyj.ningbo.gov.cn,pt.bendibao.com/edu/2022629/4170.shtm,10.143.128.248:81/zk/login.jsp,zkzy.qhdksy.cn/mh/#/NotOpen?code=zytb,xzszb.net:8001,qz.bendibao.com/edu/2022310/18960.shtm,jyj.rizhao.gov.cn/,shmeea.edu.cn,jxeea.cn,zkgl.stedu.net/stsd,gzzs.sxsedu.net/,sysksy.cn,szzk.edu.cn/,Http://121.28.151.110:9090,taszk.com/,zhongkao.sxkszx.cn:8443,zkzs.tzedu.net.cn,xzszb.net:8001/,zhaokao.net/,123.235.28.4:8001/publiclogin.do,jyj.chifeng.gov.cn,jyj.weihai.gov.cn,zk.wzer.net/,163.com/dy/article/H6M6MCFN0516BIK3.html,xjzk.gov.cn,zy.xmzskszx.net/,edu.xa.gov.cn/,jyj.xiangyang.gov.cn,61.185.20.125:9901/Login.aspx?rdo=xs1,zz.xtjyks.com/zytb/login.aspx,jyj.yantai.gov.cn,ybzsb.cn/,Http://gzjd.hubzs.com.cn,ycrxbm.cn,edu.yueyang.gov.cn/index.html,edu.zaozhuang.gov.cn,zjkjyksy.cn,zk.jyj.zhanjiang.gov.cn/,121.10.234.31:7012/iExamWeb/,gzgl.jyt.henan.gov.cn ,zk.zsedu.cn/,zhjy.zhuhai.gov.cn,0733.gotedu.com/zkkw/login,zkzs.zbedu.net/,Http://zyszsksb.cn]",2021.0,"[da,boston,sd]","[5, 8, 6, 12, 3, 7, 10, 4, 2, 1, 22, 15, 35]","[all,public]",[academic],35.000074,104.999927,0
CHN,tertiary,East Asia & Pacific,China,1.0,"University admission in China is determined by the Gaokao (National University Entrance Examination). Universities are grouped into three tiers based on quality. In 2013, a sequential mechanism (a variant of the Immediate Acceptance mechanism) was replaced by a parallel mechanism (the Serial Dictatorship mechanism).",[https://gaokao.chsi.com.cn/],[gaokao.chsi.com.cn/],1952.0,[sd],[6],[all],"[academic,distance]",35.000074,104.999927,0
CIV,tertiary,Sub-Saharan Africa,Cote d'Ivoire,0.0,This country lacks a coordinated system.,,,,,,,,7.9897371,-5.5679458,0
CIV,primary,Sub-Saharan Africa,Cote d'Ivoire,0.0,This country lacks a coordinated system.,,,,,,,,7.9897371,-5.5679458,0
CMR,tertiary,Sub-Saharan Africa,Cameroon,0.0,This country lacks a coordinated system.,,,,,,,,4.6125522,13.1535811,0
CMR,secondary,Sub-Saharan Africa,Cameroon,0.0,This country lacks a coordinated system.,,,,,,,,4.6125522,13.1535811,0
COD,tertiary,Sub-Saharan Africa,"Congo, Dem. Rep.",0.0,This country lacks a coordinated system.,,,,,,,,-4.038333,21.758664,0
COD,secondary,Sub-Saharan Africa,"Congo, Dem. Rep.",0.0,This country lacks a coordinated system.,,,,,,,,-4.038333,21.758664,0
COG,primary,Sub-Saharan Africa,"Congo, Rep.",0.0,This country lacks a coordinated system.,,,,,,,,-0.228021,15.827659,0
COG,tertiary,Sub-Saharan Africa,"Congo, Rep.",0.0,This country lacks a coordinated system.,,,,,,,,-0.228021,15.827659,0
COL,secondary,LAC,Colombia,1.0,"Bogota has a coordinated allocation system in place since 2007 for primary and secondary schools. Applicants can select up to four public or private charter schools. The system takes into account priority criteria such as students with disabilities, vulnerable students and siblings in the school. The system allocates places based on a selection indicator that weights priority characteristics.",[https://matricula.educacionbogota.edu.co/],[matricula.educacionbogota.edu.co/],2015.0,[other],[4],"[all,other]","[family,sen,ses]",4.099917,-72.9088133,0
COL,primary,LAC,Colombia,1.0,"Bogota has a coordinated allocation system in place since 2007 for primary and secondary schools. Applicants can select up to four public or private charter schools. The system takes into account priority criteria such as students with disabilities, vulnerable students and siblings in the school. The system allocates places based on a selection indicator that weights priority characteristics.",[https://matricula.educacionbogota.edu.co/],[matricula.educacionbogota.edu.co/],2015.0,[other],[4],"[all,other]","[family,sen,ses]",4.099917,-72.9088133,0
CRI,tertiary,LAC,Costa Rica,0.0,This country lacks a coordinated system.,,,,,,,,10.2735633,-84.0739102,0
CRI,secondary,LAC,Costa Rica,0.0,This country lacks a coordinated system.,,,,,,,,10.2735633,-84.0739102,0
CUB,primary,LAC,Cuba,0.0,This country lacks a coordinated system.,,,,,,,,23.0131338,-80.8328748,0
CUB,secondary,LAC,Cuba,1.0,"In Cuba, the coordinated system for secondary education covers basic secondary education and, from grades 10 to 12, includes vocational, regular secondary schools (preuniversitarios), and skill workers schools. Regular secondary schools aim to enroll high-achieving students. There are seats for students that live at the same municipality of a regular secondary school.",,,,,[10],[all],"[academic,distance]",23.0131338,-80.8328748,0
CYN,primary,Middle East & North Africa,N. Cyprus,,,,,,,,,,35.2245313,33.6252379,0
CYN,tertiary,Middle East & North Africa,N. Cyprus,,,,,,,,,,35.2245313,33.6252379,0
CYN,secondary,Middle East & North Africa,N. Cyprus,,,,,,,,,,35.2245313,33.6252379,0
CYP,primary,Middle East & North Africa,Cyprus,,,,,,,,,,34.9174159,32.889902651331866,0
CYP,secondary,Middle East & North Africa,Cyprus,,,,,,,,,,34.9174159,32.889902651331866,0
CZE,primary,Europe & central Asia,Czech Republic,0.0,This country lacks a coordinated system.,,,,,,,,49.7439047,15.3381061,0
CZE,tertiary,Europe & central Asia,Czech Republic,0.0,This country lacks a coordinated system.,,,,,,,,49.7439047,15.3381061,0
DEU,primary,Europe & central Asia,Germany,1.0,"In Germany, school admission is coordinated at the city level. In Cologne, parents are allowed to apply to up to two schools, while Hamburg allows up to three preferences. Both cities use allocation criteria such as siblings and academic performance.",[https://www.stadt-koeln.de/service/onlinedienste/],[stadt-koeln.de/service/onlinedienste/],,,"[3, 2]","[all,public]","[family,academic,distance,gender]",51.1638175,10.4478313,0
DEU,secondary,Europe & central Asia,Germany,1.0,"In Germany, school admission is coordinated at the city level. In all cities, students can apply to up to three schools. Berlin uses the immediate acceptance mechanism to assign students, while Frankfurt uses the same mechanism, but allows for manual assignment changes. In both cities, schools choose their own priority criteria.",[https://www.berlin.de/sen/bjf/en/education-in-berlin/ ],[berlin.de/sen/bjf/en/education-in-berlin/ ],2010.0,"[boston,other]",[3],"[all,public]","[family,academic,sen]",51.1638175,10.4478313,0
DJI,secondary,Sub-Saharan Africa,Djibouti,,,,,,,,,,11.8145966,42.8453061,0
DJI,primary,Sub-Saharan Africa,Djibouti,,,,,,,,,,11.8145966,42.8453061,0
DNK,tertiary,Europe & central Asia,Denmark,1.0,"Denmark has a coordinated national system for tertiary education admissions, divided into two quotas. Quota 1 is based on GPA, while Quota 2 assesses students on other qualifications set by the institutions. Some programs admit only through Quota 2. The chance of admission is not influenced by the rank of preference.",[ www.optagelse.dk],[ optagelse.dk],2003.0,[da],[8],[all],[academic],55.670249,10.3333283,0
DNK,primary,Europe & central Asia,Denmark,1.0,"Coordinated admission in Denmark only applies to Copenhagen, where students are assured a place in the schools in their district. Families can apply to two other schools. Siblings have placement priority, while pupils with language difficulties have reserved places. Other allocation criteria include linguistic balance, proximity and municipal residence.",[https://www.kk.dk/skoleindskrivning],[kk.dk/skoleindskrivning],2005.0,,[2],[public],"[family,distance]",55.670249,10.3333283,0
DOM,secondary,LAC,Dominican Republic,0.0,This country lacks a coordinated system.,,,,,,,,19.0974031,-70.3028026,0
DOM,tertiary,LAC,Dominican Republic,0.0,This country lacks a coordinated system.,,,,,,,,19.0974031,-70.3028026,0
DZA,tertiary,Middle East & North Africa,Algeria,1.0,"Algeria has a coordinated system for tertiary education. Applicants can rank from 6 to 10 options, including at least two local or regionally registered courses. Assignment criteria consider preferences, diploma scores, vacancies, and the student's desired district. Assigned students undergo oral interviews.",[progres.mesrs.dz],[progres.mesrs.dz],2009.0,,[10],,,28.0000272,2.9999825,0
DZA,primary,Middle East & North Africa,Algeria,0.0,This country lacks a coordinated system.,,,,,,,,28.0000272,2.9999825,0
ECU,tertiary,LAC,Ecuador,1.0,"Ecuador operates a coordinated system for its public universities, which involves several rounds of vacancy assignments. Starting from the second round, available slots are those declined by students in earlier rounds. Once students reject their initial placement choice, they are ineligible for subsequent rounds. Notably, in 2021, the system reduced the number of preferences allowed from 5 to 3.",[ https://transformar.senescyt.gob.ec/ ],[ transformar.senescyt.gob.ec/ ],2011.0,[boston],[3],[public],[academic],-1.3397668,-79.3666965,0
ECU,primary,LAC,Ecuador,1.0,"Ecuador has a coordinated system for primary and secondary education. For students entering the first and second years of elementary school in institutions where demand exceeds capacity, the highest authority will conduct a public lottery among the applicants.",[https://juntos.educacion.gob.ec],[juntos.educacion.gob.ec],2021.0,,,[public],,-1.3397668,-79.3666965,0
EGY,tertiary,Middle East & North Africa,Egypt,1.0,"Admission to tertiary education is facilitated through two distinct coordinated systems, one for public universities and the other for private ones. Private universities withdrew from the public admission system in 2021. Admission to public universities is solely based on the scores of the national secondary education leaving examination.","[https://admission.egypt-hub.edu.eg/,https://tansik.egypt.gov.eg/application/]","[admission.egypt-hub.edu.eg/,tansik.egypt.gov.eg/application/]",2005.0,,[20],"[public,private]",[academic],26.2540493,29.2675469,0
EGY,primary,Middle East & North Africa,Egypt,0.0,This country lacks a coordinated system.,,,,,,,,26.2540493,29.2675469,0
ERI,tertiary,Sub-Saharan Africa,Eritrea,0.0,This country lacks a coordinated system.,,,,,,,,15.9500319,37.9999668,0
ERI,secondary,Sub-Saharan Africa,Eritrea,0.0,This country lacks a coordinated system.,,,,,,,,15.9500319,37.9999668,0
ESH,secondary,Middle East & North Africa,W. Sahara,,,,,,,,,,60.3843755,15.643957374442838,0
ESH,tertiary,Middle East & North Africa,W. Sahara,,,,,,,,,,60.3843755,15.643957374442838,0
ESH,primary,Middle East & North Africa,W. Sahara,,,,,,,,,,60.3843755,15.643957374442838,0
ESP,tertiary,Europe & central Asia,Spain,1.0,"Since the 1980s, the Spanish autonomous communities have adopted coordinated admission systems. Each system varies according to the community, although all use the deferred acceptance mechanism. The ranking of students is determined by a score established by each managing organization.","[https://accesuniversitat.gencat.cat/accesuniversitat/login,https://www.todofp.es/sobre-fp/actualidad/informacion-ceuta-melilla.html,https://admdum.ucm.es/admdum/login#no-back-button,https://www.edu.xunta.gal/nerta/PaxinaInicio.do,https://www.juntadeandalucia.es/economiaconocimientoempresasyuniversidad/sguit/,https://innova.gva.es/va/web/universidad/preinscripcion]","[accesuniversitat.gencat.cat/accesuniversitat/login,todofp.es/sobre-fp/actualidad/informacion-ceuta-melilla.html,admdum.ucm.es/admdum/login#no-back-button,edu.xunta.gal/nerta/PaxinaInicio.do,juntadeandalucia.es/economiaconocimientoempresasyuniversidad/sguit/,innova.gva.es/va/web/universidad/preinscripcion]",1980s,[da],"[12, Unlimited, 10, 20, 4]","[all,public,other]","[academic,sen]",39.3260685,-4.8379791,0
ESP,secondary,Europe & central Asia,Spain,1.0,"In Spain, the assignment of students to public and private subsidized schools is governed by the Immediate Acceptance mechanism. Features common to all regions include the possibility for students to choose several schools and the priority given to factors such as siblings, proximity, and academic records. Tie-breaking criteria such as lotteries or academic scores are often employed.","[https://educacio.gencat.cat/ca/inici/index.html,https://sede.educacion.gob.es/sede/login/inicio.jjsp?idConvocatoria=1680,https://raices.madrid.org/secretariavirtual/,https://sede.xunta.gal/detalle-procedemento?codtram=ED550A&ano=2022&numpub=1&lang=es,https://www.juntadeandalucia.es/educacion/secretariavirtual/,https://itaca3.edu.gva.es/jwt/#/home,https://educa.aragon.es/admision ]","[educacio.gencat.cat/ca/inici/index.html,sede.educacion.gob.es/sede/login/inicio.jjsp?idConvocatoria=1680,raices.madrid.org/secretariavirtual/,sede.xunta.gal/detalle-procedemento?codtram=ED550A&ano=2022&numpub=1&lang=es,juntadeandalucia.es/educacion/secretariavirtual/,itaca3.edu.gva.es/jwt/#/home,educa.aragon.es/admision ]",1980s,[boston],"[6, 10, 5]","[all,other]","[family,academic,distance,sen,ses]",39.3260685,-4.8379791,0
EST,primary,Europe & central Asia,Estonia,,,,,,,,,,58.7523778,25.3319078,0
EST,secondary,Europe & central Asia,Estonia,,,,,,,,,,58.7523778,25.3319078,0
ETH,secondary,Sub-Saharan Africa,Ethiopia,0.0,This country lacks a coordinated system.,,,,,,,,10.2116702,38.6521203,0
ETH,primary,Sub-Saharan Africa,Ethiopia,0.0,This country lacks a coordinated system.,,,,,,,,10.2116702,38.6521203,0
FIN,primary,Europe & central Asia,Finland,0.0,This country lacks a coordinated system.,,,,,,,,63.2467777,25.9209164,0
FIN,tertiary,Europe & central Asia,Finland,1.0,"The application process is split into multiple rounds.There are three joint applications per year, two that offer study programs in English (one in spring and one in autumn) and one that offer study programs only in Finnish and Swedish (in spring). The English - spring application period is the only one that does not provide a single allocation. Each program may require a entrance examination.",[https://opintopolku.fi/konfo/en/],[opintopolku.fi/konfo/en/],2014.0,[da],[6],[other],[academic],63.2467777,25.9209164,0
FJI,secondary,East Asia & Pacific,Fiji,,,,,,,,,,-18.1239696,179.0122737,0
FJI,primary,East Asia & Pacific,Fiji,,,,,,,,,,-18.1239696,179.0122737,0
FLK,secondary,LAC,Falkland Is.,,,,,,,,,,-51.67474,-57.8100822,0
FLK,tertiary,LAC,Falkland Is.,,,,,,,,,,-51.67474,-57.8100822,0
FLK,primary,LAC,Falkland Is.,,,,,,,,,,-51.67474,-57.8100822,0
FRA,primary,Europe & central Asia,France,0.0,This country lacks a coordinated system.,,,,,,,,46.603354,1.8883335,0
FRA,tertiary,Europe & central Asia,France,0.0,This country lacks a coordinated system.,,,,,,,,46.603354,1.8883335,0
GAB,secondary,Sub-Saharan Africa,Gabon,0.0,This country lacks a coordinated system.,,,,,,,,-0.8999695,11.6899699,0
GAB,tertiary,Sub-Saharan Africa,Gabon,0.0,This country lacks a coordinated system.,,,,,,,,-0.8999695,11.6899699,0
GBR,primary,Europe & central Asia,United Kingdom,1.0,"In the UK, different regions have different coordinated admissions systems. School admissions in all UK regions prioritize factors such as proximity, siblings and special needs.","[https://www.eani.org.uk/parents/admissions/primary-admissions-guide ,https://eadmissions.birmingham.gov.uk/prefs.php ,https://parent.bristol.gov.uk/web/portal/pages/parents/admissions ,www.glasgow.gov.uk/article/18205/Placing-Requests  ,https://parentportal.leeds.gov.uk/Synergy/Enquiries/Citizen/citizen.aspx/admissions-signin ,https://www.eadmissions.org.uk/ ,https://www.manchester.gov.uk/info/500321/primary_school_admissions/7264/apply_for_a_reception_class_place_for_september_2020/4 ,www. sheffield.gov.uk/home/schoolschildcare/apply-school-place]","[eani.org.uk/parents/admissions/primary-admissions-guide ,eadmissions.birmingham.gov.uk/prefs.php ,parent.bristol.gov.uk/web/portal/pages/parents/admissions ,glasgow.gov.uk/article/18205/Placing-Requests  ,parentportal.leeds.gov.uk/Synergy/Enquiries/Citizen/citizen.aspx/admissions-signin ,eadmissions.org.uk/ ,manchester.gov.uk/info/500321/primary_school_admissions/7264/apply_for_a_reception_class_place_for_september_2020/4 , sheffield.gov.uk/home/schoolschildcare/apply-school-place]",2005.0,[boston],"[3, 6, 5, Unlimited]","[all,public,other]","[family,distance,sen]",54.7023545,-3.2765753,0
GBR,tertiary,Europe & central Asia,United Kingdom,0.0,This country lacks a coordinated system.,,,,,,,,54.7023545,-3.2765753,0
GEO,tertiary,Europe & central Asia,Georgia,1.0,"Georgia's coordinated system has unified national examinations for all institutions. Before the exams, applicants designate their preferred programs of study. At first, an applicant's score is compared to others who selected the same program as their first choice. If the student is not accepted, her scores are ranked consecutively with those who applied for every subsequent choice.",,,2005.0,[boston],,[all],[academic],32.3293809,-83.1137366,0
GEO,primary,Europe & central Asia,Georgia,0.0,This country lacks a coordinated system.,,,,,,,,32.3293809,-83.1137366,0
GHA,secondary,Sub-Saharan Africa,Ghana,1.0,"Ghana has a coordinated system at the country level for all secondary institutions. At the end of junior high school, students take the basic education certification examination and those with high enough grades qualify for senior high school. The system aims to address socio-economic inequality, scaling up test scores for students from low-resourced and rural schools.",[https://www.shsdesk.com/pages/about.php],[shsdesk.com/pages/about.php],2005.0,[sd],[3],[all],"[academic,ses]",8.0300284,-1.0800271,0
GHA,tertiary,Sub-Saharan Africa,Ghana,0.0,This country lacks a coordinated system.,,,,,,,,8.0300284,-1.0800271,0
GIN,tertiary,Sub-Saharan Africa,Guinea,0.0,This country lacks a coordinated system.,,,,,,,,10.7226226,-10.7083587,0
GIN,secondary,Sub-Saharan Africa,Guinea,0.0,This country lacks a coordinated system.,,,,,,,,10.7226226,-10.7083587,0
GMB,primary,Sub-Saharan Africa,Gambia,0.0,This country lacks a coordinated system.,,,,,,,,13.470062,-15.4900464,0
GMB,tertiary,Sub-Saharan Africa,Gambia,0.0,This country lacks a coordinated system.,,,,,,,,13.470062,-15.4900464,0
GNB,primary,Sub-Saharan Africa,Guinea-Bissau,0.0,This country lacks a coordinated system.,,,,,,,,11.815215,-15.2351044,0
GNB,tertiary,Sub-Saharan Africa,Guinea-Bissau,0.0,This country lacks a coordinated system.,,,,,,,,11.815215,-15.2351044,0
GNQ,primary,Sub-Saharan Africa,Eq. Guinea,,,,,,,,,,1.6508001,10.267895,0
GNQ,secondary,Sub-Saharan Africa,Eq. Guinea,,,,,,,,,,1.6508001,10.267895,0
GRC,tertiary,Europe & central Asia,Greece,1.0,"Greece has a coordinated system for public universities. It employs a two-phase assignment mechanism. In the first phase, candidates may apply to a limited set of preferences (the limit is 10% of the number of vacancies in each field). Those not admitted in the first phase proceed to the second phase with unlimited choices from remaining seats.",[ https://eregister.it.minedu.gov.gr/ ],[ eregister.it.minedu.gov.gr/ ],,,[15],[public],"[academic,sen]",43.2097838,-77.6930602,0
GRC,primary,Europe & central Asia,Greece,0.0,This country lacks a coordinated system.,,,,,,,,43.2097838,-77.6930602,0
GRL,primary,North America,Greenland,,,,,,,,,,35.9948477,-94.1796014,0
GRL,tertiary,North America,Greenland,,,,,,,,,,35.9948477,-94.1796014,0
GTM,secondary,LAC,Guatemala,0.0,This country lacks a coordinated system.,,,,,,,,15.5855545,-90.345759,0
GTM,tertiary,LAC,Guatemala,0.0,This country lacks a coordinated system.,,,,,,,,15.5855545,-90.345759,0
GUY,primary,LAC,Guyana,,,,,,,,,,4.8417097,-58.6416891,0
GUY,tertiary,LAC,Guyana,,,,,,,,,,4.8417097,-58.6416891,0
GZA,primary,Middle East & North Africa,West Bank and Gaza,0.0,This country lacks a coordinated system.,,,,,,,,31.9049661,35.2023413,0
GZA,secondary,Middle East & North Africa,West Bank and Gaza,0.0,This country lacks a coordinated system.,,,,,,,,31.9049661,35.2023413,0
HKG,primary,East Asia & Pacific,Hong Kong,1.0,"The coordinated system comprises two stages. In the first one, uncoordinated applications prioritize family connections. Unsuccessful applicants proceed to the coordinated stage, where 10% of vacancies allow unrestricted school choices (up to 3 schools in or outside the school net), and the remaining 90% involve restricted school choices (up to 30 schools within the school net).",[https://epoa.edb.gov.hk/login],[epoa.edb.gov.hk/login],1983.0,[boston],[30],[other],[family],22.2793278,114.1628131,0
HKG,tertiary,East Asia & Pacific,Hong Kong,1.0,"The coordinated system is the main route designed to assist students with the secondary examination (HKDSE) results. Assignment will be based mainly on HKDSE, while other factors will be considered. The system employs a mix of DA and Boston mechanisms, temporarily cutting off applications after assigning seats to first-choice applicants and then a final allocation based on the DA algorithm.",[https://www.jupas.edu.hk/],[jupas.edu.hk/],1990.0,[other],[20],[other],[academic],22.2793278,114.1628131,0
HND,tertiary,LAC,Honduras,0.0,This country lacks a coordinated system.,,,,,,,,15.2572432,-86.0755145,0
HND,primary,LAC,Honduras,0.0,This country lacks a coordinated system.,,,,,,,,15.2572432,-86.0755145,0
HRV,tertiary,Europe & central Asia,Croatia,1.0,"Croatia has a coordinated system for tertiary education. Applicants must fill in an application form to apply to any type of institution. Enrolment criteria are determined by institutions and include educational qualifications, previous achievements, and additional entrance exams. A candidate can be enrolled in two double major programs from the same university based on priorities and vacancies.",[www.postani-student.hr],[postani-student.hr],2009.0,[da],[10],[all],"[academic,sen]",45.3658443,15.6575209,0
HRV,primary,Europe & central Asia,Croatia,0.0,This country lacks a coordinated system.,,,,,,,,45.3658443,15.6575209,0
HTI,tertiary,LAC,Haiti,0.0,This country lacks a coordinated system.,,,,,,,,19.1399952,-72.3570972,0
HTI,secondary,LAC,Haiti,0.0,This country lacks a coordinated system.,,,,,,,,19.1399952,-72.3570972,0
HUN,secondary,Europe & central Asia,Hungary,1.0,"Enrollment into secondary schools has been organized at the national level via a coordinated system. Students may supply preference lists of any length. Schools also rank applicants and this ranking is based on grades from the primary school, entrance exams (organized by the schools) and interviews. The weight of each score is decided by the school, under some constraints given in the regulation.",[oktatas.hu/hivatali_ugyek],[oktatas.hu/hivatali_ugyek],2000.0,[da],[Unlimited],[all],[academic],47.1817585,19.5060937,0
HUN,primary,Europe & central Asia,Hungary,0.0,This country lacks a coordinated system.,,,,,,,,47.1817585,19.5060937,0
IDN,secondary,East Asia & Pacific,Indonesia,1.0,The high school admission system (called PPDB) is coordinated at the city level. Systems tend to have 4 channels. Zoning path: for students living in the school zone. Achievement path: prioritize students based on academic performance. Parent transfer path: for students not living in the school zone. Affirmative path: for students who come from economically disadvantaged families.,"[http://ppdb.bandung.go.id/, https://daftar.ppdb.bandung.go.id/,https://ppdb.jakarta.go.id,https://palembang.demo.siap-ppdb.com/#/,https://ppdbsmpn.tangerangselatankota.go.id/]","[ppdb.bandung.go.id/, daftar.ppdb.bandung.go.id/,ppdb.jakarta.go.id,palembang.demo.siap-ppdb.com/#/,ppdbsmpn.tangerangselatankota.go.id/]",,[boston],"[1, 2]","[all,public]","[family,academic,distance,ses]",-2.4833826,117.8902853,0
IDN,primary,East Asia & Pacific,Indonesia,1.0,"Indonesia's student admission methods, from Bandung's multiple tracks to Palembang's single-choice system, showcase the country's diverse local educational approaches. These variations reflect Indonesia's decentralized education system, which is tailored to meet the unique needs and priorities of each city.","[http://ppdb.bandung.go.id/,https:// ppdb.bekasikota.go.id,https://ppdb.jakarta.go.id,https://ppdb.pemkomedan.go.id/,https://palembang.demo.siap-ppdb.com/#,www.sangjuara.semarangkota.go.id,https://smp.ppdbsurabaya.net/,ppdbmandiri.tangerangkota.go.id,https://ppdbsmpn.tangerangselatankota.go.id/]","[ppdb.bandung.go.id/, ppdb.bekasikota.go.id,ppdb.jakarta.go.id,ppdb.pemkomedan.go.id/,palembang.demo.siap-ppdb.com/#,sangjuara.semarangkota.go.id,smp.ppdbsurabaya.net/,ppdbmandiri.tangerangkota.go.id,ppdbsmpn.tangerangselatankota.go.id/]",,[boston],"[1, 2, 4]","[all,public]","[family,academic,distance,sen,ses]",-2.4833826,117.8902853,0
IND,secondary,South Asia,India,1.0,"Multiple regions in India have the Right to Education program, which determines 25% of vacancies in private schools. This system gives priority to disadvantaged groups based on income, caste and other criteria. Many regions also have coordinated systems for public schools, where priority tends to be given to siblings and those living near the school.","[https://www.edudel.nic.in,https://www.uniapply.com/,https://hscap.kerala.gov.in/,https://intelliadmissions.org/home,eduportal.cg.nic.in]","[edudel.nic.in,uniapply.com/,hscap.kerala.gov.in/,intelliadmissions.org/home,eduportal.cg.nic.in]",2010.0,,,"[all,public,private,other]","[family,academic,distance,ses]",22.3511148,78.6677428,0
IND,primary,South Asia,India,1.0,"Multiple regions in India have the Right to Education program, which determines 25% of vacancies in private schools. This system gives priority to disadvantaged groups based on income, caste and other criteria. Many regions also have coordinated systems for public schools, where priority tends to be given to siblings and those living near the school.","[http://rte25.upsdc.gov.in/,https://rte.orpgujarat.com/,www.rte25admission.maharashtra.gov.in, www.schooleducation.kar.nic.in,https://rteportal.mp.gov.in,http://online.chdeducation.gov.in/,https://rte.tnschools.gov.in/home?returnUrl=%2Freg-parent,https://www.edudel.nic.in,https://harprathmik.gov.in/,https://www.uniapply.com/,https://scert.telangana.gov.in/,https://rajpsp.nic.in/PSP4/Auth/RTE_PP/Guidelines.aspx,https://intelliadmissions.org/home,eduportal.cg.nic.in,https://rte.jharkhand.gov.in/,cse.ap.gov.in]","[rte25.upsdc.gov.in/,rte.orpgujarat.com/,rte25admission.maharashtra.gov.in, schooleducation.kar.nic.in,rteportal.mp.gov.in,online.chdeducation.gov.in/,rte.tnschools.gov.in/home?returnUrl=%2Freg-parent,edudel.nic.in,harprathmik.gov.in/,uniapply.com/,scert.telangana.gov.in/,rajpsp.nic.in/PSP4/Auth/RTE_PP/Guidelines.aspx,intelliadmissions.org/home,eduportal.cg.nic.in,rte.jharkhand.gov.in/,cse.ap.gov.in]",2009.0,"[da,boston,sd]",,"[all,public,private,other]","[family,distance,sen,ses]",22.3511148,78.6677428,0
IRL,tertiary,Europe & central Asia,Ireland,1.0,"Ireland has a national system that has three rounds: A, Zero, and One. Round One is the main round. There are three types of undergraduate degrees: level 6, 7 and 8. Level 6 and 7 are applied through a unique list, while level 8 courses are applied through another list. Applicants can choose up to 10 programs on each list and can receive an offer from both lists.",[https://www.cao.ie/],[cao.ie/],1976.0,[da],[10],[all],"[academic,sen,ses]",52.865196,-7.9794599,0
IRL,secondary,Europe & central Asia,Ireland,1.0,"Ireland has a coordinated system for secondary schools at the Limerick Area. Each school sets its own criteria, such as catchment areas, religion, and sibling attendance. The first-choice school decides whether to accept the applicant and, if rejected, the application moves on to the next choices, resembling the Boston algorithm.",[https://lec.ie/cas.html],[lec.ie/cas.html],2005.0,[boston],[11],"[all,other]",,52.865196,-7.9794599,0
IRN,tertiary,Middle East & North Africa,Iran,1.0,"The system uses a scoring system based on the Konkour examination. This high-stakes, standardized test, in combination with GPA from their final 3 years of high school, determines their eligibility and rank for university admission. The allocation mechanism corresponds to the serial dictatorship mechanism. The system introduced criteria to encourage local enrollment.",,,1975.0,[sd],,[public],"[academic,distance]",32.6475314,54.5643516,0
IRN,secondary,Middle East & North Africa,Iran,0.0,This country lacks a coordinated system.,,,,,,,,32.6475314,54.5643516,0
IRQ,primary,Middle East & North Africa,Iraq,0.0,This country lacks a coordinated system.,,,,,,,,33.0955793,44.1749775,0
IRQ,tertiary,Middle East & North Africa,Iraq,1.0,"Iraq operates a coordinated system at the national level (excluding the Kurdistan region). Placement is based on Baccalaureate examination scores and vacancies. The number of program choices depends on the specialty, ranging from 10 to 50 choices. 10% of vacancies are for martyrs' families.",[https://www.dirasat-gate.org/download-center.html],[dirasat-gate.org/download-center.html],1988.0,,[50],[public],[academic],33.0955793,44.1749775,0
ISL,primary,Europe & central Asia,Iceland,,,,,,,,,,64.9841821,-18.1059013,0
ISL,tertiary,Europe & central Asia,Iceland,,,,,,,,,,64.9841821,-18.1059013,0
ISR,primary,Middle East & North Africa,Israel,1.0,"In Israel, coordinated admission operates in the Netanya region, which includes state, religious, Haredi and unofficial recognized schools. Enrollment for first grade is done annually through the municipal website, where they can indicate a maximum of 3 preferences. Priority is given based on proximity to the school, with special priorities for anchor schools and ""space super-schools"".",[https://www.netanya.muni.il/],[netanya.muni.il/],,[other],[3],[all],[distance],30.8124247,34.8594762,0
ISR,secondary,Middle East & North Africa,Israel,1.0,"In Israel, both Netanya and Tel-Aviv employ distinct approaches to secondary school registrations. In Netanya, the municipal administration manages the process, allowing students to select up to three school preferences. Meanwhile, Tel-Aviv introduced its School Choice Program in 1994, where sixth-grade students rank preferences among three district schools and two outside options.",[https://www.netanya.muni.il/],[netanya.muni.il/],1994.0,[boston],"[3, 5]","[all,public]",[distance],30.8124247,34.8594762,0
ITA,tertiary,Europe & central Asia,Italy,0.0,This country lacks a coordinated system.,,,,,,,,42.6384261,12.674297,0
ITA,secondary,Europe & central Asia,Italy,1.0,Italy has a coordinated system at the national level for primary and secondary public schools. Admission criteria are determined by each school; there are no national-level guidelines for admission criteria.,[https://www.istruzione.it/iscrizionionline/index.html],[istruzione.it/iscrizionionline/index.html],2012.0,[boston],[3],[public],,42.6384261,12.674297,0
JAM,secondary,LAC,Jamaica,0.0,This country lacks a coordinated system.,,,,,,,,18.1850507,-77.3947693,0
JAM,primary,LAC,Jamaica,0.0,This country lacks a coordinated system.,,,,,,,,18.1850507,-77.3947693,0
JOR,primary,Middle East & North Africa,Jordan,0.0,This country lacks a coordinated system.,,,,,,,,44.6663146,-93.6261918,0
JOR,secondary,Middle East & North Africa,Jordan,0.0,This country lacks a coordinated system.,,,,,,,,44.6663146,-93.6261918,0
JPN,tertiary,East Asia & Pacific,Japan,0.0,This country lacks a coordinated system.,,,,,,,,36.5748441,139.2394179,0
JPN,primary,East Asia & Pacific,Japan,1.0,"In Japan, there has been a shift from a traditional ""school district system"" to a ""school selection system"". Managed by the Municipal Education Boards, school assignment is now based on their preferences. The number of options varies by municipality, ranging from city-wide options to zone selections. In some towns such as Yame, lotteries decide school assignment.",,,2014.0,,,[public],,36.5748441,139.2394179,0
KAZ,primary,Europe & central Asia,Kazakhstan,0.0,This country lacks a coordinated system.,,,,,,,,48.1012954,66.7780818,0
KAZ,secondary,Europe & central Asia,Kazakhstan,0.0,This country lacks a coordinated system.,,,,,,,,48.1012954,66.7780818,0
KEN,primary,Sub-Saharan Africa,Kenya,0.0,This country lacks a coordinated system.,,,,,,,,1.4419683,38.4313975,0
KEN,tertiary,Sub-Saharan Africa,Kenya,1.0,"Kenya has a coordinated system at the national level. The number of preferences allowed is determined by academic performance. Previous years’ cut-off points are provided to guide applicants during the application process. In cases of ties for the last available seat, several actions may be taken, including raising the cut-off mark, expanding admission capacity, or considering other factors.",[https://www.kuccps.net/],[kuccps.net/],2012.0,[boston],[8],[other],"[academic,sen,gender]",1.4419683,38.4313975,0
KGZ,tertiary,Europe & central Asia,Kyrgyzstan,0.0,This country lacks a coordinated system.,,,,,,,,42.4858224,74.714583,0
KGZ,primary,Europe & central Asia,Kyrgyzstan,0.0,This country lacks a coordinated system.,,,,,,,,42.4858224,74.714583,0
KHM,primary,East Asia & Pacific,Cambodia,0.0,This country lacks a coordinated system.,,,,,,,,12.5433216,104.8144914,0
KHM,secondary,East Asia & Pacific,Cambodia,0.0,This country lacks a coordinated system.,,,,,,,,12.5433216,104.8144914,0
KOR,primary,East Asia & Pacific,South Korea,1.0,"In Korea, school admission is coordinated at the city level. Daegu follows an allocation based on 50% preference and 50% residence. In Jeju, if the 1st choice is full, applicants are assigned to the 2nd choice and can go up to the 10th preference.",[https://www.neis.go.kr/pas_mms_nv99_001.do],[neis.go.kr/pas_mms_nv99_001.do],,[boston],"[2, 10]",[all],,36.638392,127.6961188,0
KOR,secondary,East Asia & Pacific,South Korea,1.0,"The High School Equalization Policy (HSEP), which began in the mid-1990s, randomly assigns students to academic high schools in 28 cities. Seoul altered the HSEP in 2010, introducing a three-phase system that allows school choice based on a lottery. Outside Seoul, some areas allow preferences before random assignment, decided by local education districts.",,,1990s,[boston],"[2, 4]",[all],"[academic,distance,sen]",36.638392,127.6961188,0
KOS,secondary,Europe & central Asia,Kosovo,,,,,,,,,,42.5869578,20.9021231,0
KOS,tertiary,Europe & central Asia,Kosovo,,,,,,,,,,42.5869578,20.9021231,0
KOS,primary,Europe & central Asia,Kosovo,,,,,,,,,,42.5869578,20.9021231,0
KWT,primary,Middle East & North Africa,Kuwait,0.0,This country lacks a coordinated system.,,,,,,,,29.3796532,47.9734174,0
KWT,tertiary,Middle East & North Africa,Kuwait,0.0,This country lacks a coordinated system.,,,,,,,,29.3796532,47.9734174,0
LAO,tertiary,East Asia & Pacific,Laos,0.0,This country lacks a coordinated system.,,,,,,,,20.0171109,103.378253,0
LAO,secondary,East Asia & Pacific,Laos,0.0,This country lacks a coordinated system.,,,,,,,,20.0171109,103.378253,0
LBN,tertiary,Middle East & North Africa,Lebanon,0.0,This country lacks a coordinated system.,,,,,,,,40.375713,-76.4626118,0
LBN,primary,Middle East & North Africa,Lebanon,0.0,This country lacks a coordinated system.,,,,,,,,40.375713,-76.4626118,0
LBR,tertiary,Sub-Saharan Africa,Liberia,0.0,This country lacks a coordinated system.,,,,,,,,5.7499721,-9.3658524,0
LBR,secondary,Sub-Saharan Africa,Liberia,0.0,This country lacks a coordinated system.,,,,,,,,5.7499721,-9.3658524,0
LBY,primary,Middle East & North Africa,Libya,0.0,This country lacks a coordinated system.,,,,,,,,26.8234472,18.1236723,0
LBY,tertiary,Middle East & North Africa,Libya,0.0,This country lacks a coordinated system.,,,,,,,,26.8234472,18.1236723,0
LKA,primary,South Asia,Sri Lanka,1.0,"Sri Lanka has a coordinated system for public schools. Applicants must list a minimum of six schools near their place of residence, including at least three provincial schools, with a maximum of 16 schools allowed. Students are classified into different types of seats that include categories like children of residents living near the school, siblings of current students, among others.",[https://moe.gov.lk/],[moe.gov.lk/],,,[16],[public],"[family,distance]",7.5554942,80.7137847,0
LKA,secondary,South Asia,Sri Lanka,0.0,This country lacks a coordinated system.,,,,,,,,7.5554942,80.7137847,0
LSO,primary,Sub-Saharan Africa,Lesotho,0.0,This country lacks a coordinated system.,,,,,,,,-29.6039267,28.3350193,0
LSO,secondary,Sub-Saharan Africa,Lesotho,1.0,"The transition to the first year of secondary school is made through a coordinated system. Applicants must fill a form including three schools of their choice, and applications are forwarded to first-preference secondary schools. Priority is given to students residing near the applied school. Admissions also consider student's academic portfolio from Grade 1 to 7.",[https://www.facebook.com/photo/?fbid=512012254304044&set=pcb.512012964303973],[facebook.com/photo/?fbid=512012254304044&set=pcb.512012964303973],2017.0,[boston],[3],[public],"[academic,distance]",-29.6039267,28.3350193,0
LTU,secondary,Europe & central Asia,Lithuania,1.0,"Lithuania has various coordinated systems for primary and secondary schools. These systems vary depending on the region. The number of possible preferences to declare ranges from 2 to 4. While the systems vary, common admission priority points often include grades from previous courses or proximity to the school, and the vast majority of systems value having siblings in the institution.","[https://ugdaualytiski.alytus.lt,www.klaipeda.lt ,https://www.panevezys.lt/lt/veiklos-sritys/svietimas-237/svietimo-ir-mokslo-jh8h/mokiniu-priemimas-i-mokyklas.html,https://siauliai-mokyklos.vaikuregistracija.lt/prisijungti,https://svietimas.vilnius.lt/ ]","[ugdaualytiski.alytus.lt,klaipeda.lt ,panevezys.lt/lt/veiklos-sritys/svietimas-237/svietimo-ir-mokslo-jh8h/mokiniu-priemimas-i-mokyklas.html,siauliai-mokyklos.vaikuregistracija.lt/prisijungti,svietimas.vilnius.lt/ ]",2017.0,,"[2, 4, 3]","[all,public]","[family,academic,distance,sen]",55.3500003,23.7499997,0
LTU,primary,Europe & central Asia,Lithuania,1.0,"Lithuania has various coordinated systems for primary and secondary schools. These systems vary depending on the region. The number of possible preferences to declare ranges from 2 to 4. While the systems vary, common admission priority points often include grades from previous courses or proximity to the school, and the vast majority of systems value having siblings in the institution.","[https://ugdaualytiski.alytus.lt,www.klaipeda.lt ,https://www.panevezys.lt/lt/veiklos-sritys/svietimas-237/svietimo-ir-mokslo-jh8h/mokiniu-priemimas-i-mokyklas.html,https://siauliai-mokyklos.vaikuregistracija.lt/prisijungti,https://svietimas.vilnius.lt/ ]","[ugdaualytiski.alytus.lt,klaipeda.lt ,panevezys.lt/lt/veiklos-sritys/svietimas-237/svietimo-ir-mokslo-jh8h/mokiniu-priemimas-i-mokyklas.html,siauliai-mokyklos.vaikuregistracija.lt/prisijungti,svietimas.vilnius.lt/ ]",2017.0,,"[2, 4, 3]","[all,public]","[family,distance,sen]",55.3500003,23.7499997,0
LUX,tertiary,Europe & central Asia,Luxembourg,,,,,,,,,,49.6112768,6.129799,0
LUX,primary,Europe & central Asia,Luxembourg,,,,,,,,,,49.6112768,6.129799,0
LVA,tertiary,Europe & central Asia,Latvia,1.0,"Latvia has a coordinated system for 12 participating universities. Applicants can choose up to 10 programs and 20 priorities. Priorities consist of the program, form of study (full or part-time), and funding. The process includes two rounds; the first round resembles a Boston mechanism (applicants can only be assigned to their first preference), while the second round has a DA mechanism.",[https://latvija.lv/Epakalpojumi/EP42/Apraksts],[latvija.lv/Epakalpojumi/EP42/Apraksts],2010.0,[boston],[10],[other],[academic],56.8406494,24.7537645,0
LVA,primary,Europe & central Asia,Latvia,0.0,This country lacks a coordinated system.,,,,,,,,56.8406494,24.7537645,0
MAR,primary,Middle East & North Africa,Morocco,0.0,This country lacks a coordinated system.,,,,,,,,28.3347722,-10.371337908392649,0
MAR,tertiary,Middle East & North Africa,Morocco,0.0,This country lacks a coordinated system.,,,,,,,,28.3347722,-10.371337908392649,0
MDA,tertiary,Europe & central Asia,Moldova,0.0,This country lacks a coordinated system.,,,,,,,,47.2879608,28.5670941,0
MDA,primary,Europe & central Asia,Moldova,0.0,This country lacks a coordinated system.,,,,,,,,47.2879608,28.5670941,0
MDG,primary,Sub-Saharan Africa,Madagascar,0.0,This country lacks a coordinated system.,,,,,,,,-18.9249604,46.4416422,0
MDG,secondary,Sub-Saharan Africa,Madagascar,0.0,This country lacks a coordinated system.,,,,,,,,-18.9249604,46.4416422,0
MEX,secondary,LAC,Mexico,1.0,"The Comisión Metropolitana de Instituciones Públicas de Educación Media Superior de la Zona Metropolitana de la Ciudad de México has administered the high school placement competition since 1996. Assignments are based on test scores, order of preference and available places.",[https://www.comipems.org.mx/],[comipems.org.mx/],1996.0,[sd],[20],"[all,public]",[academic],19.4326296,-99.1331785,0
MEX,primary,LAC,Mexico,1.0,"In several Mexican states such as Jalisco, Guanajuato, Baja California, Mexico City, Nuevo Leon and the State of Mexico, there are coordinated admission systems. Parents select preferred schools online and priority criteria often include proximity to the school and sibling attendance.","[https://sie.chihuahua.gob.mx/publico/preinscripciones/,https://mi.sej.jalisco.gob.mx/?servicio=https://mimuro.jalisco.gob.mx,http://inscripciones.seg.guanajuato.gob.mx/Account/Login,http://www.educacionbc.edu.mx/,https://preinscripciones.aefcm.gob.mx,nl.gob.mx/preinscripciones,https://sistemas2.edomex.gob.mx/TramitesyServicios/Tramite?tram=1067&cont=0,http://sep.puebla.gob.mx/]","[sie.chihuahua.gob.mx/publico/preinscripciones/,mi.sej.jalisco.gob.mx/?servicio=mimuro.jalisco.gob.mx,inscripciones.seg.guanajuato.gob.mx/Account/Login,educacionbc.edu.mx/,preinscripciones.aefcm.gob.mx,nl.gob.mx/preinscripciones,sistemas2.edomex.gob.mx/TramitesyServicios/Tramite?tram=1067&cont=0,sep.puebla.gob.mx/]",2004.0,,"[3, 5, 4]","[all,public,other]","[family,distance,sen]",19.4326296,-99.1331785,0
MKD,secondary,Europe & central Asia,Macedonia,0.0,This country lacks a coordinated system.,,,,,,,,41.1927739,-95.4256198,0
MKD,tertiary,Europe & central Asia,Macedonia,0.0,This country lacks a coordinated system.,,,,,,,,41.1927739,-95.4256198,0
MLI,primary,Sub-Saharan Africa,Mali,0.0,This country lacks a coordinated system.,,,,,,,,16.3700359,-2.2900239,0
MLI,tertiary,Sub-Saharan Africa,Mali,1.0,"Mali has a coordinated system for some public and private institutions along the country. Applicants can submit their preferences for at least 2 and up to 3 programs, ranked in order. It's mandatory to include at least one non-selective course in the list of preferences. For selective training programs, such as university degrees, applicants are required to take specific tests.",[http://www.campusmali.ml],[campusmali.ml],,,[3],[other],[academic],16.3700359,-2.2900239,0
MMR,secondary,East Asia & Pacific,Myanmar,0.0,This country lacks a coordinated system.,,,,,,,,17.1750495,95.9999652,0
MMR,primary,East Asia & Pacific,Myanmar,0.0,This country lacks a coordinated system.,,,,,,,,17.1750495,95.9999652,0
MNE,tertiary,Europe & central Asia,Montenegro,,,,,,,,,,-29.6826112,-51.4687455,0
MNE,secondary,Europe & central Asia,Montenegro,,,,,,,,,,-29.6826112,-51.4687455,0
MNG,primary,East Asia & Pacific,Mongolia,0.0,This country lacks a coordinated system.,,,,,,,,43.9382593,-79.2235563,0
MNG,tertiary,East Asia & Pacific,Mongolia,0.0,This country lacks a coordinated system.,,,,,,,,43.9382593,-79.2235563,0
MOZ,tertiary,Sub-Saharan Africa,Mozambique,0.0,This country lacks a coordinated system.,,,,,,,,-19.302233,34.9144977,0
MOZ,primary,Sub-Saharan Africa,Mozambique,0.0,This country lacks a coordinated system.,,,,,,,,-19.302233,34.9144977,0
MRT,tertiary,Sub-Saharan Africa,Mauritania,0.0,This country lacks a coordinated system.,,,,,,,,20.2540382,-9.2399263,0
MRT,primary,Sub-Saharan Africa,Mauritania,0.0,This country lacks a coordinated system.,,,,,,,,20.2540382,-9.2399263,0
MWI,primary,Sub-Saharan Africa,Malawi,0.0,This country lacks a coordinated system.,,,,,,,,-13.2687204,33.9301963,0
MWI,tertiary,Sub-Saharan Africa,Malawi,0.0,This country lacks a coordinated system.,,,,,,,,-13.2687204,33.9301963,0
MYS,tertiary,East Asia & Pacific,Malaysia,1.0,"In Malaysia, tertiary education admissions to most public universities are managed through a coordinated online system. This system allows students to apply to up to 12 programs.",[https://online.mohe.gov.my/UPUOnlinev2/login],[online.mohe.gov.my/UPUOnlinev2/login],1971.0,,[12],[public],,4.5693754,102.2656823,0
MYS,primary,East Asia & Pacific,Malaysia,0.0,This country lacks a coordinated system.,,,,,,,,4.5693754,102.2656823,0
NAM,tertiary,Sub-Saharan Africa,Namibia,0.0,This country lacks a coordinated system.,,,,,,,,-23.2335499,17.3231107,0
NAM,secondary,Sub-Saharan Africa,Namibia,0.0,This country lacks a coordinated system.,,,,,,,,-23.2335499,17.3231107,0
NCL,secondary,East Asia & Pacific,New Caledonia,,,,,,,,,,-20.63784275,161.2117626122578,0
NCL,primary,East Asia & Pacific,New Caledonia,,,,,,,,,,-20.63784275,161.2117626122578,0
NER,primary,Sub-Saharan Africa,Niger,0.0,This country lacks a coordinated system.,,,,,,,,17.7356214,9.3238432,0
NER,tertiary,Sub-Saharan Africa,Niger,0.0,This country lacks a coordinated system.,,,,,,,,17.7356214,9.3238432,0
NGA,secondary,Sub-Saharan Africa,Nigeria,1.0,"Nigeria operates a coordinated system for secondary public schools. Candidates may apply to up to six schools, one from each geographic zone. Admission is based on the National Common Entrance Examination (60%), regional quotas (30%) and exigency (10%).",[https://ncee.neco.gov.ng/],[ncee.neco.gov.ng/],,,[6],[public],"[academic,distance]",9.6000359,7.9999721,0
NGA,tertiary,Sub-Saharan Africa,Nigeria,1.0,"Nigeria has a coordinated system for all institutions. When students register for the Unified Tertiary Matriculation Examination (UTME), they can mention up to 4 program choices. Admission ranking is based on UTME scores, institutional screening scores, senior school grades, and interviews. Public universities have quotas based on merit, catchment area and for less educationally developed states.",[https://www.jamb.gov.ng/],[jamb.gov.ng/],1978.0,,[4],[all],"[academic,distance,ses]",9.6000359,7.9999721,0
NIC,tertiary,LAC,Nicaragua,0.0,This country lacks a coordinated system.,,,,,,,,12.6090157,-85.2936911,0
NIC,secondary,LAC,Nicaragua,0.0,This country lacks a coordinated system.,,,,,,,,12.6090157,-85.2936911,0
NLD,tertiary,Europe & central Asia,Netherlands,0.0,This country lacks a coordinated system.,,,,,,,,52.2434979,5.6343227,0
NLD,secondary,Europe & central Asia,Netherlands,1.0,"In the Netherlands, school admissions are coordinated at the city level. In Amsterdam and Rotterdam, primary schools provide binding advice on where students should pursue their studies, restricting applications to schools that match this guidance. Three types of assignment algorithms are used: deferred acceptance, immediate acceptance, and serial dictatorship.","[https://www.koersvo.nl/ ,https://www.bovohaaglanden.nl/ ,https://www.naarhetvo.nl/   ]","[koersvo.nl/ ,bovohaaglanden.nl/ ,naarhetvo.nl/   ]",2004.0,"[da,boston,sd]",[4],[public],,52.2434979,5.6343227,0
NOR,primary,Europe & central Asia,Norway,0.0,This country lacks a coordinated system.,,,,,,,,64.5731537,11.52803643954819,0
NOR,secondary,Europe & central Asia,Norway,0.0,This country lacks a coordinated system.,,,,,,,,64.5731537,11.52803643954819,0
NPL,tertiary,South Asia,Nepal,1.0,"Nepal employs a coordinated system for medical programs of public institutions. Applicants must meet general eligibility criteria, with each university having its own admission criteria. Eligible applicants must take and pass the specific Medical Entrance Examination. A merit list is generated based on eligibility and academic performance.",,,,,,[public],[academic],28.3780464,83.9999901,0
NPL,primary,South Asia,Nepal,0.0,This country lacks a coordinated system.,,,,,,,,28.3780464,83.9999901,0
NZL,tertiary,East Asia & Pacific,New Zealand,0.0,This country lacks a coordinated system.,,,,,,,,-41.5000831,172.8344077,0
NZL,secondary,East Asia & Pacific,New Zealand,0.0,This country lacks a coordinated system.,,,,,,,,-41.5000831,172.8344077,0
OMN,secondary,Middle East & North Africa,Oman,0.0,This country lacks a coordinated system.,,,,,,,,21.0000287,57.0036901,0
OMN,primary,Middle East & North Africa,Oman,0.0,This country lacks a coordinated system.,,,,,,,,21.0000287,57.0036901,0
PAK,primary,South Asia,Pakistan,0.0,This country lacks a coordinated system.,,,,,,,,30.3308401,71.247499,0
PAK,secondary,South Asia,Pakistan,0.0,This country lacks a coordinated system.,,,,,,,,30.3308401,71.247499,0
PAN,tertiary,LAC,Panama,0.0,This country lacks a coordinated system.,,,,,,,,8.559559,-81.1308434,0
PAN,primary,LAC,Panama,0.0,This country lacks a coordinated system.,,,,,,,,8.559559,-81.1308434,0
PER,secondary,LAC,Peru,1.0,Peru has a coordinated system for primary and secondary schools in the city of Lima. It involves a two-round process and allows only one preference. Students not assigned in the first round can apply for a place in the second round.,[https://www.matricula2023.drelm.gob.pe/],[matricula2023.drelm.gob.pe/],,[boston],[1],"[all,public]",[sen],-6.8699697,-75.0458515,0
PER,tertiary,LAC,Peru,0.0,This country lacks a coordinated system.,,,,,,,,-6.8699697,-75.0458515,0
PHL,tertiary,East Asia & Pacific,Philippines,0.0,This country lacks a coordinated system.,,,,,,,,12.7503486,122.7312101,0
PHL,primary,East Asia & Pacific,Philippines,0.0,This country lacks a coordinated system.,,,,,,,,12.7503486,122.7312101,0
PNG,tertiary,East Asia & Pacific,Papua New Guinea,1.0,Papua New Guinea employs a coordinated system for tertiary education at the national level. The system moved from using an immediate acceptance mechanism to a deferred acceptance mechanism in 2018. Each program can set the selection criteria (GPA is set by default).,[https://apply.dherst.gov.pg/Apply/Account/Login],[apply.dherst.gov.pg/Apply/Account/Login],2014.0,[da],[Unlimited],,[academic],-5.6816069,144.2489081,0
PNG,secondary,East Asia & Pacific,Papua New Guinea,0.0,This country lacks a coordinated system.,,,,,,,,-5.6816069,144.2489081,0
POL,secondary,Europe & central Asia,Poland,1.0,"Poland has several coordinated systems for public secondary schools that vary from region to region. Among the mechanisms used, deferred acceptance is the most common. The maximum number of preferences varies from 3 to unlimited depending on the region.","[https://nabor-pomorze.edu.com.pl/kandydat/app/access_locked.html,https://krakow.e-omikron.pl/,nabor.pcss.pl,https://nabor.pcss.pl/szczecin/,https://warszawa.edu.com.pl,https://rekrutacje.edu.wroclaw.pl/elemento-parents/main.action]","[nabor-pomorze.edu.com.pl/kandydat/app/access_locked.html,krakow.e-omikron.pl/,nabor.pcss.pl,nabor.pcss.pl/szczecin/,warszawa.edu.com.pl,rekrutacje.edu.wroclaw.pl/elemento-parents/main.action]",,[da],"[Unlimited, 6, 8, 3, 5]","[public,other]",[academic],52.215933,19.134422,0
POL,primary,Europe & central Asia,Poland,1.0,"Poland has several coordinated public school systems that vary according to cities and regions. Candidates can apply to three schools, which is guaranteed by the country's regulations. However, in some local administrations it is possible to apply to more than three schools. The number of preferences to declare varies and often has no feasible limits.","[ https://edu.gdansk.pl/rekrutacja-26.html, https://krakow.elemento.pl, https://lodz.elemento.pl/elemento-parents//main_inactive.action,http://sip.poznan.pl/sip/adr/adr_raport/,https://nabor.pcss.pl/szczecin/,https://warszawa-podstawowe.pzo.edu.pl/elemento-parents/main.action,https://rekrutacje.edu.wroclaw.pl/elemento-parents/main.action]","[ edu.gdansk.pl/rekrutacja-26.html, krakow.elemento.pl, lodz.elemento.pl/elemento-parents//main_inactive.action,sip.poznan.pl/sip/adr/adr_raport/,nabor.pcss.pl/szczecin/,warszawa-podstawowe.pzo.edu.pl/elemento-parents/main.action,rekrutacje.edu.wroclaw.pl/elemento-parents/main.action]",2008.0,[other],"[Unlimited, 3]",[public],"[family,distance,sen,ses]",52.215933,19.134422,0
PRI,tertiary,LAC,Puerto Rico,0.0,This country lacks a coordinated system.,,,,,,,,18.2247706,-66.4858295,0
PRI,primary,LAC,Puerto Rico,1.0,"Puerto Rico has a coordinated system for primary and secondary schools. Priority is given to students remaining in their current school, then to those seeking transfers based on their preferences. Families can list up to three schools per child.",[https://prdesieprod.opc.oracleoutsourcing.com/registro/ ],[prdesieprod.opc.oracleoutsourcing.com/registro/ ],2017.0,[boston],[3],[other],,18.2247706,-66.4858295,0
PRK,primary,East Asia & Pacific,North Korea,,,,,,,,,,40.3736611,127.0870417,0
PRK,tertiary,East Asia & Pacific,North Korea,,,,,,,,,,40.3736611,127.0870417,0
PRT,primary,Europe & central Asia,Portugal,1.0,"Portugal has a coordinated system for primary and secondary schools at the national level. Applicants can select up to five schools and their desired course. Priority is given to the first preference, with subsequent options considered if vacancies are unavailable. Tiebreaker criteria change among institutions.",[portaldasmatriculas.edu.gov.pt],[portaldasmatriculas.edu.gov.pt],2020.0,[boston],[5],[all],"[family,distance,sen]",39.6621648,-8.1353519,0
PRT,secondary,Europe & central Asia,Portugal,1.0,"Portugal has a coordinated system for primary and secondary schools at the national level. Applicants can select up to five schools and their desired course. Priority is given to the first preference, with subsequent options considered if vacancies are unavailable. Tiebreaker criteria change among institutions.",[portaldasmatriculas.edu.gov.pt],[portaldasmatriculas.edu.gov.pt],2020.0,[boston],[5],[all],"[family,distance,sen]",39.6621648,-8.1353519,0
PRY,primary,LAC,Paraguay,0.0,This country lacks a coordinated system.,,,,,,,,-23.3165935,-58.1693445,0
PRY,tertiary,LAC,Paraguay,0.0,This country lacks a coordinated system.,,,,,,,,-23.3165935,-58.1693445,0
QAT,primary,Middle East & North Africa,Qatar,1.0,"In Qatar, the Ministry of Education manages coordinated admission for public primary and secondary schools. The online platform enables parents to view school capacities, vacancies, and enroll students accordingly. Siblings receive priority in registration.",,,,,,[public],[family],25.3336984,51.2295295,0
QAT,secondary,Middle East & North Africa,Qatar,1.0,"In Qatar, the Ministry of Education manages coordinated admission for public primary and secondary schools. The online platform enables parents to view school capacities, vacancies, and enroll students accordingly. Siblings receive priority in registration.",,,,,,[public],[family],25.3336984,51.2295295,0
ROU,tertiary,Europe & central Asia,Romania,0.0,This country lacks a coordinated system.,,,,,,,,45.9852129,24.6859225,0
ROU,primary,Europe & central Asia,Romania,0.0,This country lacks a coordinated system.,,,,,,,,45.9852129,24.6859225,0
RUS,secondary,Europe & central Asia,Russia,0.0,This country lacks a coordinated system.,,,,,,,,64.6863136,97.7453061,0
RUS,tertiary,Europe & central Asia,Russia,0.0,This country lacks a coordinated system.,,,,,,,,64.6863136,97.7453061,0
RWA,primary,Sub-Saharan Africa,Rwanda,0.0,This country lacks a coordinated system.,,,,,,,,-1.9646631,30.0644358,0
RWA,secondary,Sub-Saharan Africa,Rwanda,1.0,Rwanda has a coordinated system for students who have successfully passed the primary national examinations. Good performance is crucial because the system starts allocating the best performing students. Students are assigned to schools within their respective districts or in close proximity to their locations.,,,,,,,"[academic,distance]",-1.9646631,30.0644358,0
SAU,tertiary,Middle East & North Africa,Saudi Arabia,0.0,This country lacks a coordinated system.,,,,,,,,25.6242618,42.3528328,0
SAU,secondary,Middle East & North Africa,Saudi Arabia,0.0,This country lacks a coordinated system.,,,,,,,,25.6242618,42.3528328,0
SDN,secondary,Sub-Saharan Africa,Sudan,0.0,This country lacks a coordinated system.,,,,,,,,10.9,6.5,0
SDN,tertiary,Sub-Saharan Africa,Sudan,1.0,"Sudan's tertiary education admission follows a coordinated system with two rounds. Applicants order preferences, with admission based on secondary examination scores. Half of seats in disadvantaged states must be assign to students living in that state.",[www.admission.gov.sd],[admission.gov.sd],,,[45],[all],"[academic,ses]",10.9,6.5,0
SEN,tertiary,Sub-Saharan Africa,Senegal,0.0,This country lacks a coordinated system.,,,,,,,,14.4750607,-14.4529612,0
SEN,secondary,Sub-Saharan Africa,Senegal,0.0,This country lacks a coordinated system.,,,,,,,,14.4750607,-14.4529612,0
SGP,secondary,East Asia & Pacific,Singapore,1.0,"Singapore has a coordinated system for public schools. If the number of applicants exceeds the number of vacancies, selection will be based on merit. The schools offer priority admission if listed as the first choice. Students not placed in preferred schools are allocated based on their exams scores and registered address. Tiebreaking rules include citizenship status and order of school choice.",,,,[sd],[6],[public],[academic],1.357107,103.8194992,0
SGP,primary,East Asia & Pacific,Singapore,1.0,"The coordinated system for public schools in Singapore follows several phases. These phases include considerations such as sibling connections, parent volunteerism, alumni affiliation, and home-school distance. Registrants are allowed to select only one school at each phase. If the number of applicants exceeds school vacancies, a random assignment is made.",,,1972.0,[boston],[1],[public],[distance],1.357107,103.8194992,0
SLB,tertiary,East Asia & Pacific,Solomon Is.,,,,,,,,,,36.1492625,-83.1648851,0
SLB,primary,East Asia & Pacific,Solomon Is.,,,,,,,,,,36.1492625,-83.1648851,0
SLE,secondary,Sub-Saharan Africa,Sierra Leone,1.0,"Sierra Leona has a coordinated system for secondary public schools. Candidates can choose up to three schools, and placement is based on their choices and an entry exam. An algorithm considers available seats, prioritizing first-choice candidates. Interviews may follow for admission, with candidates not placed in their choices accommodated in the nearest available school.",,,2020.0,[boston],[3],[public],[academic],8.6400349,-11.8400269,0
SLE,tertiary,Sub-Saharan Africa,Sierra Leone,0.0,This country lacks a coordinated system.,,,,,,,,8.6400349,-11.8400269,0
SLV,primary,LAC,El Salvador,0.0,This country lacks a coordinated system.,,,,,,,,13.8000382,-88.9140683,0
SLV,tertiary,LAC,El Salvador,0.0,This country lacks a coordinated system.,,,,,,,,13.8000382,-88.9140683,0
SOM,tertiary,Sub-Saharan Africa,Somalia,0.0,This country lacks a coordinated system.,,,,,,,,8.3676771,49.083416,0
SOM,primary,Sub-Saharan Africa,Somalia,0.0,This country lacks a coordinated system.,,,,,,,,8.3676771,49.083416,0
SRB,primary,Europe & central Asia,Serbia,0.0,This country lacks a coordinated system.,,,,,,,,44.02432285,21.07657433209902,0
SRB,tertiary,Europe & central Asia,Serbia,0.0,This country lacks a coordinated system.,,,,,,,,44.02432285,21.07657433209902,0
SSD,primary,Sub-Saharan Africa,South Sudan,0.0,This country lacks a coordinated system.,,,,,,,,7.8699431,29.6667897,0
SSD,secondary,Sub-Saharan Africa,South Sudan,0.0,This country lacks a coordinated system.,,,,,,,,7.8699431,29.6667897,0
SUR,primary,LAC,Suriname,,,,,,,,,,4.1413025,-56.0771187,0
SUR,tertiary,LAC,Suriname,,,,,,,,,,4.1413025,-56.0771187,0
SVK,secondary,Europe & central Asia,Slovak Republic,0.0,This country lacks a coordinated system.,,,,,,,,48.7411522,19.4528646,0
SVK,tertiary,Europe & central Asia,Slovak Republic,0.0,This country lacks a coordinated system.,,,,,,,,48.7411522,19.4528646,0
SVN,tertiary,Europe & central Asia,Slovenia,1.0,"Slovenia has a coordinated system for tertiary institutions at the national level. Candidates may specify a maximum of three different study programs in order of priority in which they wish to enroll. Selection criteria typically include final exam scores and overall academic performance in secondary school, with specific subject achievements also considered.",[https://portal.evs.gov.si/home],[portal.evs.gov.si/home],1994.0,,[3],[all],[academic],46.1199444,14.8153333,0
SVN,secondary,Europe & central Asia,Slovenia,1.0,"Slovenia operates a coordinated system for secondary schools. Candidates apply for enrollment in one educational program at one school. The selection process involves two rounds for programs with enrollment restrictions. In the first round, students are allocated based on academic performance.",,,2018.0,[boston],[1],[all],[academic],46.1199444,14.8153333,0
SWE,secondary,Europe & central Asia,Sweden,1.0,"In regions like Gothenburg, Stockholm, Uppsala, and Vasteras, Sweden, coordinated systems manage secondary school admissions. Students rank their school preferences and compete based on their academic performance.","[https://indra2.se/,https://skane.dexter-ist.com/Skane/Default.asp?page=auth/common/login,https://orebro.dexter-ist.com/Orebro/Default.asp?page=auth/common/login,https://indra.storsthlm.se/,https://uppsala.dexter-ist.com/Uppsala/Default.asp?page=auth/common/login,https://www.gymnasieantagning.vastmanland.se/Vland/Default.asp?page=auth/common/login]","[indra2.se/,skane.dexter-ist.com/Skane/Default.asp?page=auth/common/login,orebro.dexter-ist.com/Orebro/Default.asp?page=auth/common/login,indra.storsthlm.se/,uppsala.dexter-ist.com/Uppsala/Default.asp?page=auth/common/login,gymnasieantagning.vastmanland.se/Vland/Default.asp?page=auth/common/login]",2000.0,[sd],"[30, Unlimited, 4, 5]","[all,other]","[academic,distance]",59.6749712,14.5208584,0
SWE,tertiary,Europe & central Asia,Sweden,1.0,"University applications for all programs are coordinated through the Swedish Council for Higher Education. The process includes two rounds: one for English programs and another for Swedish programs. Applicants can choose up to eight programs. Each institution determines its own admission criteria. After considering on-time applicants, remaining spots are offered to waitlisted and late applicants.",[www.universityadmissions.se],[universityadmissions.se],,[da],[8],[all],,59.6749712,14.5208584,0
SWZ,secondary,Sub-Saharan Africa,Eswatini,,,,,,,,,,-26.5624806,31.3991317,0
SWZ,primary,Sub-Saharan Africa,Eswatini,,,,,,,,,,-26.5624806,31.3991317,0
SYR,secondary,Middle East & North Africa,Syria,0.0,This country lacks a coordinated system.,,,,,,,,34.815353599999995,38.42307447267531,0
SYR,tertiary,Middle East & North Africa,Syria,1.0,"Syria has a coordinated system for scientific programs. Mofadala is a list describing the minimum scores required. After graduation exams, the Mofadala is published. Depending on this and applicants’ interests, they list fields in order. Then, the second Mofadala is published, which determines allocations. Students are assigned to the first field on their list in which they meet the minimum score.",[www.mof.sy/],[mof.sy/],,,[45],[other],[academic],34.815353599999995,38.42307447267531,0
TCD,tertiary,Sub-Saharan Africa,Chad,0.0,This country lacks a coordinated system.,,,,,,,,15.6134137,19.0156172,0
TCD,primary,Sub-Saharan Africa,Chad,0.0,This country lacks a coordinated system.,,,,,,,,15.6134137,19.0156172,0
TGO,tertiary,Sub-Saharan Africa,Togo,0.0,This country lacks a coordinated system.,,,,,,,,8.7800265,1.0199765,0
TGO,secondary,Sub-Saharan Africa,Togo,0.0,This country lacks a coordinated system.,,,,,,,,8.7800265,1.0199765,0
THA,primary,East Asia & Pacific,Thailand,0.0,This country lacks a coordinated system.,,,,,,,,7.4931858,124.724704,0
THA,secondary,East Asia & Pacific,Thailand,0.0,This country lacks a coordinated system.,,,,,,,,7.4931858,124.724704,0
TJK,tertiary,Europe & central Asia,Tajikistan,0.0,This country lacks a coordinated system.,,,,,,,,38.6281733,70.8156541,0
TJK,secondary,Europe & central Asia,Tajikistan,0.0,This country lacks a coordinated system.,,,,,,,,38.6281733,70.8156541,0
TKM,secondary,Europe & central Asia,Turkmenistan,0.0,This country lacks a coordinated system.,,,,,,,,39.3763807,59.3924609,0
TKM,primary,Europe & central Asia,Turkmenistan,0.0,This country lacks a coordinated system.,,,,,,,,39.3763807,59.3924609,0
TLS,primary,East Asia & Pacific,Timor-Leste,,,,,,,,,,-8.7443169,126.063482,0
TLS,tertiary,East Asia & Pacific,Timor-Leste,,,,,,,,,,-8.7443169,126.063482,0
TTO,primary,LAC,Trinidad and Tobago,,,,,,,,,,10.7466905,-61.0840075,0
TTO,tertiary,LAC,Trinidad and Tobago,,,,,,,,,,10.7466905,-61.0840075,0
TUN,tertiary,Middle East & North Africa,Tunisia,1.0,"Tunisia manages a coordinated system for public institutions. Applicants' selection is primarily based on their baccalaureate score, which considers GPA, grades in relevant subjects, and their location. Students can list multiple program choices, with a minimum requirement of six. The selection process involves several rounds, prioritizing candidates with higher scores in the first round.",[https://www.orientation.tn/orient/],[orientation.tn/orient/],,[da],[Unlimited],[public],"[academic,distance]",36.8002068,10.1857757,0
TUN,secondary,Middle East & North Africa,Tunisia,1.0,"In Tunisia, a coordinated system is employed for admission to twelve selective high schools across the country. The application process depends on the student's middle school district, with some students having limited choice based on their district. Applicants undergo selection based on their performance in the national end-of-middle-school exam.",,,,[boston],[1],[other],[academic],36.8002068,10.1857757,0
TUR,tertiary,Europe & central Asia,Turkey,1.0,"Turkey has a coordinated system for tertiary education. A student’s results from the tests basic proficiency (40%) and field qualification (60%), are combined with their grades to calculate a final score. After students have received their results, they indicate their preferences for up to 24 programs via a coordinated system which automatically assigns applicants to a bachelor’s program.",[https://ais.osym.gov.tr/],[ais.osym.gov.tr/],1974.0,[sd],[24],[all],[academic],38.9597594,34.9249653,0
TUR,secondary,Europe & central Asia,Turkey,1.0,"Turkey has a coordinated system for public schools. The system covers three types of schools: central exam, local placement, and boarding. Students apply to all three simultaneously. If students are assigned to a central exam school (using a serial dictatorship mechanism) and accept, other two types will not be considered. The same is true between local placement and boarding school preferences.",[https://eokulyd.meb.gov.tr/],[eokulyd.meb.gov.tr/],1997.0,[sd],,[public],"[academic,distance]",38.9597594,34.9249653,0
TWN,secondary,East Asia & Pacific,Taiwan,,,,,,,,,,23.5983227,120.83537694479216,0
TWN,tertiary,East Asia & Pacific,Taiwan,,,,,,,,,,23.5983227,120.83537694479216,0
TWN,primary,East Asia & Pacific,Taiwan,,,,,,,,,,23.5983227,120.83537694479216,0
TZA,primary,Sub-Saharan Africa,Tanzania,0.0,This country lacks a coordinated system.,,,,,,,,-6.5247123,35.7878438,0
TZA,tertiary,Sub-Saharan Africa,Tanzania,1.0,"In Tanzania, tertiary education admission is facilitated through a coordinated online system. Applicants can select up to five institutions and will eventually be assigned to one of their choices.",[https://www.tcu.go.tz/],[tcu.go.tz/],,,[5],,,-6.5247123,35.7878438,0
UGA,primary,Sub-Saharan Africa,Uganda,0.0,This country lacks a coordinated system.,,,,,,,,1.5333554,32.2166578,0
UGA,tertiary,Sub-Saharan Africa,Uganda,1.0,"Uganda has a coordinated system for government-sponsored seats at public universities. Admission pathways include the national merit quota and the district quota, with 25% of seats allocated via district quotas to address regional inequalities. There exists a bonus point system for women's participation. Unsuccessful applicants in the first round can reapply under private sponsorship.",,,1990s,,[10],[public],"[academic,distance,gender]",1.5333554,32.2166578,0
UKR,secondary,Europe & central Asia,Ukraine,0.0,This country lacks a coordinated system.,,,,,,,,49.4871968,31.2718321,0
UKR,primary,Europe & central Asia,Ukraine,0.0,This country lacks a coordinated system.,,,,,,,,49.4871968,31.2718321,0
URY,primary,LAC,Uruguay,0.0,This country lacks a coordinated system.,,,,,,,,-32.8755548,-56.0201525,0
URY,secondary,LAC,Uruguay,1.0,"Uruguay implements a national coordinated system for school admissions. Families must register three preferred institutions during the application process for public high schools. The first option is determined based on proximity, considering the school the student has historically attended. For the other two options, families have the flexibility to select the institution of their choice.",,,,[da],[3],[all],,-32.8755548,-56.0201525,0
USA,secondary,North America,United States,1.0,"In the U.S., cities such as Boston, Chicago, Dallas, Houston, Los Angeles, New York, San Antonio and San Diego apply various school choice systems. These systems use priority criteria such as proximity, sibling enrollment and use lotteries to distribute places in preferred schools. The range of school choice usually varies from 5 to 14 options.","[https://sis.mybps.org/aspen/logon.do;jsessionid=qlpGRPOjK2tS9vJgMz9dxhVLObTGUgEBOlF6A8Kt.sisapp-01_0, go.cps.edu,https://choose.dallasisd.org/login,https://choosehisd.my.site.com/Apply/SiteLanding,https://enroll.lausd.net/en/Account/Parent,https://www.myschools.nyc/es/,https://saisdenroll.schoolmint.net/welcome,https://registration.powerschool.com/family/ActionForms/Public/34385]","[sis.mybps.org/aspen/logon.do;jsessionid=qlpGRPOjK2tS9vJgMz9dxhVLObTGUgEBOlF6A8Kt.sisapp-01_0, go.cps.edu,choose.dallasisd.org/login,choosehisd.my.site.com/Apply/SiteLanding,enroll.lausd.net/en/Account/Parent,myschools.nyc/es/,saisdenroll.schoolmint.net/welcome,registration.powerschool.com/family/ActionForms/Public/34385]",1980.0,"[da,boston,sd]","[12, 6, 10, Unlimited, 3, 5]","[all,public]","[family,academic,distance,sen,ses]",39.7837304,-100.445882,0
USA,primary,North America,United States,1.0,"In the U.S., cities such as Boston, Chicago, Dallas, Houston, Los Angeles, New York, San Antonio and San Diego apply various school choice systems. These systems use priority criteria such as proximity, sibling enrollment and use lotteries to distribute places in preferred schools. The range of school choice usually varies from 5 to 14 options.","[https://sis.mybps.org/aspen/logon.do;jsessionid=qlpGRPOjK2tS9vJgMz9dxhVLObTGUgEBOlF6A8Kt.sisapp-01_0, go.cps.edu,https://choose.dallasisd.org/login,https://choosehisd.my.site.com/Apply/SiteLanding,https://www.myschools.nyc/es/,https://saisdenroll.schoolmint.net/welcome,https://registration.powerschool.com/family/ActionForms/Public/34385]","[sis.mybps.org/aspen/logon.do;jsessionid=qlpGRPOjK2tS9vJgMz9dxhVLObTGUgEBOlF6A8Kt.sisapp-01_0, go.cps.edu,choose.dallasisd.org/login,choosehisd.my.site.com/Apply/SiteLanding,myschools.nyc/es/,saisdenroll.schoolmint.net/welcome,registration.powerschool.com/family/ActionForms/Public/34385]",1980.0,[da],"[12, 10, Unlimited, 3, 5]","[all,public]","[family,academic,distance,ses]",39.7837304,-100.445882,0
UZB,secondary,Europe & central Asia,Uzbekistan,0.0,This country lacks a coordinated system.,,,,,,,,41.32373,63.9528098,0
UZB,primary,Europe & central Asia,Uzbekistan,0.0,This country lacks a coordinated system.,,,,,,,,41.32373,63.9528098,0
VEN,primary,LAC,Venezuela,0.0,This country lacks a coordinated system.,,,,,,,,8.0018709,-66.1109318,0
VEN,secondary,LAC,Venezuela,0.0,This country lacks a coordinated system.,,,,,,,,8.0018709,-66.1109318,0
VNM,tertiary,East Asia & Pacific,Vietnam,1.0,"Vietnam has a coordinated system. Candidates can apply to 2 institutions. There are a lot of methods by which universities rank students, and usually each university has more than one method. Nowadays, candidates do not need to choose a method, because the system will consider the method with the highest chance of acceptance.",,,2015.0,,[2],,,15.9266657,107.9650855,0
VNM,secondary,East Asia & Pacific,Vietnam,0.0,This country lacks a coordinated system.,,,,,,,,15.9266657,107.9650855,0
VUT,tertiary,East Asia & Pacific,Vanuatu,,,,,,,,,,-16.5255069,168.1069154,0
VUT,secondary,East Asia & Pacific,Vanuatu,,,,,,,,,,-16.5255069,168.1069154,0
YEM,primary,Middle East & North Africa,Yemen,0.0,This country lacks a coordinated system.,,,,,,,,16.3471243,47.8915271,0
YEM,secondary,Middle East & North Africa,Yemen,0.0,This country lacks a coordinated system.,,,,,,,,16.3471243,47.8915271,0
ZAF,secondary,Sub-Saharan Africa,South Africa,0.0,This country lacks a coordinated system.,,,,,,,,-28.8166236,24.991639,0
ZAF,tertiary,Sub-Saharan Africa,South Africa,0.0,This country lacks a coordinated system.,,,,,,,,-28.8166236,24.991639,0
ZMB,primary,Sub-Saharan Africa,Zambia,0.0,This country lacks a coordinated system.,,,,,,,,-14.5189121,27.5589884,0
ZMB,secondary,Sub-Saharan Africa,Zambia,0.0,This country lacks a coordinated system.,,,,,,,,-14.5189121,27.5589884,0
ZWE,tertiary,Sub-Saharan Africa,Zimbabwe,0.0,This country lacks a coordinated system.,,,,,,,,-18.4554963,29.7468414,0
ZWE,primary,Sub-Saharan Africa,Zimbabwe,0.0,This country lacks a coordinated system.,,,,,,,,-18.4554963,29.7468414,0
